name,uid,resource_type,water_fountain,bottle_filler,jug_filler,dog_fountain,latitude,longitude,address,city,state,zip_code,park,access,public_access_hours_open,public_access_hours_close,public_access_days,notes,data_source,point,supervisor_district,analysis_neighborhood,data_as_of,data_loaded_at,Neighborhoods,Current Police Districts,Current Supervisor Districts,Analysis Neighborhoods,Recreation and Parks Properties
525 Golden Gate,956935023348360657,drinking_water,0,1,0,0,37.7809272,-122.419371,525 Golden Gate,San Francisco,CA,94102,,limited_access,08:00:00,17:00:00,Weekdays,,puc,POINT (-122.419371 37.7809272),5,Tenderloin,2024/03/01 11:23:48 AM,2024/03/01 11:29:55 AM,21,4,10,36,
Bayview Pit Stop - 2500 Jennings St,3068763388383169130,restroom,0,0,0,0,37.724533,-122.39084,2500 Jennings St,San Francisco,CA,,,publicly_accessible,,,,,pit_stop,POINT (-122.39084 37.724533),10,Bayview Hunters Point,2024/03/01 11:23:48 AM,2024/03/01 11:29:55 AM,86,2,9,1,
Pier 27 Beltline Building,7267887821631352683,drinking_water,1,0,0,0,,,29 San Francisco Pier 33,,,,,out_of_service,,,,,port,,,,2024/03/01 11:23:48 AM,2024/03/01 11:29:55 AM,,,,,
Tenderloin Pit Stop - Taylor and Turk streets,7460298997726487520,restroom,0,0,0,0,37.783207,-122.41083,Taylor and Turk streets,San Francisco,CA,,,publicly_accessible,,,,,pit_stop,POINT (-122.41083 37.783207),5,Tenderloin,2024/03/01 11:23:48 AM,2024/03/01 11:29:55 AM,20,5,10,36,
"Mid-Market Pit Stop - Market Street, between Hyde and 7th streets",5961780263829161949,restroom,0,0,0,0,37.779766,-122.41363,"Market Street, between Hyde and 7th streets",San Francisco,CA,,,publicly_accessible,,,,,pit_stop,POINT (-122.41363 37.779766),5,Tenderloin,2024/03/01 11:23:48 AM,2024/03/01 11:29:55 AM,21,5,10,36,
Chowder Hut,1529365743775458966,restroom,0,0,0,0,37.8087793,-122.4155999,2890 Taylor St,San Francisco,CA,94133,,publicly_accessible,,,Daily,Porta Potty,port,POINT (-122.4155999 37.8087793),3,North Beach,2024/03/01 11:23:48 AM,2024/03/01 11:29:55 AM,99,6,3,23,
Crane Cove Park,3854442721173284396,restroom,0,0,0,0,37.76309,-122.3878,18th street and Illinois St,San Francisco,CA,94107,,limited_access,,,Daily,,port,POINT (-122.3878 37.76309),10,Potrero Hill,2024/03/01 11:23:48 AM,2024/03/01 11:29:55 AM,55,2,9,26,
Golden Gate Park County Fair Bldg,267201242479838480,restroom,0,0,0,0,37.76651029566745,-122.46712993061563,Stanyan & Great Hwy,San Francisco,CA,94122,Golden Gate Park - Section 3,publicly_accessible,08:00:00,20:00:00,Daily,,rec,POINT (-122.467129931 37.766510296),7,Golden Gate Park,2024/03/01 11:23:48 AM,2024/03/01 11:29:55 AM,9,8,11,12,231
Shoreview Park - Drinking Fountain - Bottle Filler,7845817676701733207,drinking_water,1,1,0,0,37.73177917,-122.38125781,17 Lillian Ct,San Francisco,CA,94124,Shoreview Park,publicly_accessible,08:00:00,20:00:00,Daily,,rec,POINT (-122.381257807 37.731779173),10,Bayview Hunters Point,2024/03/01 11:23:48 AM,2024/03/01 11:29:55 AM,86,2,9,1,201
Eureka Valley Branch Library/ Harvey Milk Memorial Branch Library,8214720885853823779,drinking_water,1,0,0,0,37.76406037000004,-122.43188171699995,1 Jose Sarria Ct,San Francisco,CA,94114,,limited_access,,,Daily,"opening_hours = [""Sunday:13:00-17:00"",""Monday:10:00-18:00"",""Tuesday:10:00-20:00"",""Wednesday:10:00-20:00"",""Thursday:10:00-18:00"",""Friday:13:00-18:00"",""Saturday:10:00-18:00"",""Total Weekly Hours:53""]",library,POINT (-122.431881717 37.76406037),8,Castro/Upper Market,2024/03/01 11:23:48 AM,2024/03/01 11:29:55 AM,38,3,5,5,49
Miraloma Playground - Concrete Pathway Drinking Fountain,8317157624279771526,drinking_water,1,0,0,0,37.73910454,-122.44949348,Omar & Sequoia Way,San Francisco,CA,94127,Miraloma Playground,publicly_accessible,08:00:00,20:00:00,Daily,,rec,POINT (-122.449493478 37.73910454),7,West of Twin Peaks,2024/03/01 11:23:48 AM,2024/03/01 11:29:55 AM,72,9,8,41,136
Golden Gate Park - Section 1 - Drinking Fountain,4799638606532791370,drinking_water,1,0,0,0,37.7721214249251,-13630819.4082727,Oak & Ashbury Sts,San Francisco,CA,94117,Golden Gate Park - Section 1,limited_access,08:00:00,20:00:00,Daily,,rec,POINT (-122.447734095 37.772121425),5,Golden Gate Park,2024/03/01 11:23:48 AM,2024/03/01 11:29:55 AM,24,7,11,12,229
Helen Wills Clubhouse,2185961860176799854,restroom,0,0,0,0,37.79573314202505,-122.42054753270601,Broadway & Larkin St,San Francisco,CA,94109,Helen Wills Playground,publicly_accessible,08:00:00,20:00:00,Daily,,rec,POINT (-122.420547533 37.795733142),3,Russian Hill,2024/03/01 11:23:48 AM,2024/03/01 11:29:55 AM,105,4,3,32,175
Mission Art Center,5865210523169838923,restroom,0,0,0,0,37.7580887741712,-122.41344366345938,745 Treat St,San Francisco,CA,94110,Mission Rec Center,publicly_accessible,08:00:00,20:00:00,Daily,,rec,POINT (-122.413443663 37.758088774),9,Mission,2024/03/01 11:23:48 AM,2024/03/01 11:29:55 AM,53,3,2,20,215
Salvation Army Headquarters,7376495296883677357,drinking_water,0,1,0,0,37.7814174,-122.4020001,832 Folsom Ave,San Francisco,CA,94107,,publicly_accessible,,,Daily,,puc,POINT (-122.4020001 37.7814174),6,South of Market,2024/03/01 11:23:48 AM,2024/03/01 11:29:55 AM,32,1,10,34,
Fulton Clubhouse,5914464353027580566,restroom,0,0,0,0,37.77355508046788,-122.48688849434511,27th Ave & Fulton St,San Francisco,CA,94121,Fulton Playground,publicly_accessible,08:00:00,20:00:00,Daily,,rec,POINT (-122.486888494 37.77355508),1,Outer Richmond,2024/03/01 11:23:48 AM,2024/03/01 11:29:55 AM,8,8,4,29,210
Laurel Hill Clubhouse,5792798905216035670,restroom,0,0,0,0,37.783690988334925,-122.45113543748239,Euclid & Collins St,San Francisco,CA,94118,Laurel Hill Playground,publicly_accessible,08:00:00,20:00:00,Daily,,rec,POINT (-122.451135437 37.783690988),2,Presidio Heights,2024/03/01 11:23:48 AM,2024/03/01 11:29:55 AM,11,8,6,31,187
Golden Gate Park Park Aid Station,6515724856502307209,restroom,0,0,0,0,37.76698914357814,-122.45335127460808,811 Stanyan St,San Francisco,CA,94122,Golden Gate Park - Section 1,limited_access,08:00:00,20:00:00,Daily,,rec,POINT (-122.453351275 37.766989144),5,Golden Gate Park,2024/03/01 11:23:48 AM,2024/03/01 11:29:55 AM,9,7,11,12,229
Mission Bay Library,8224817024566265679,drinking_water,1,0,0,0,37.775369728000044,-122.39309738399999,960 04th St,San Francisco,CA,94158,,limited_access,,,Daily,"opening_hours = [""Sunday:13:00-17:00"",""Monday:10:00-18:00"",""Tuesday:10:00-18:00"",""Wednesday:11:00-20:00"",""Thursday:10:00-18:00"",""Friday:13:00-18:00"",""Saturday:10:00-18:00"",""Total Weekly Hours:50""]",library,POINT (-122.393097384 37.775369728),6,Mission Bay,2024/03/01 11:23:48 AM,2024/03/01 11:29:55 AM,34,1,10,4,
Betty Ann Ong Chinese Rec Center - Drinking Fountain/Hi-Low,4553483192576280550,drinking_water,1,0,0,0,37.79429119,-122.41169416,1199 Mason St,San Francisco,CA,94108,Betty Ann Ong Chinese Rec Center,publicly_accessible,08:00:00,20:00:00,Daily,,rec,POINT (-122.411694162 37.794291195),3,Nob Hill,2024/03/01 11:23:48 AM,2024/03/01 11:29:55 AM,16,6,3,21,155
Pier 7,8096256367090940691,drinking_water,1,1,0,0,37.79897,-122.39703,Pier 7 on the Embarcadero,San Francisco,CA,94105,,publicly_accessible,,,Daily,Next to decaux toilet,port,POINT (-122.39703 37.79897),3,Financial District/South Beach,2024/03/01 11:23:48 AM,2024/03/01 11:29:55 AM,77,6,3,8,
Golden Gate Park Sharon Arts Studio,8592488633681375097,restroom,0,0,0,0,37.76825165798059,-122.45826063463771,Sharon Meadow,San Francisco,CA,94122,Golden Gate Park - Section 7,publicly_accessible,08:00:00,20:00:00,Daily,,rec,POINT (-122.458260635 37.768251658),7,Golden Gate Park,2024/03/01 11:23:48 AM,2024/03/01 11:29:55 AM,9,7,11,12,228
Ferry Buiding,1733576385388718204,restroom,0,0,0,0,37.79542,-122.39363,1 Ferry Building,San Francisco,CA,94111,,limited_access,07:00:00,22:00:00,Daily,On each end of the building,port,POINT (-122.39363 37.79542),3,Financial District/South Beach,2024/03/01 11:23:48 AM,2024/03/01 11:29:55 AM,108,6,3,8,
19th & Alabama,2447204787546099701,drinking_water,0,1,1,0,37.760315,-122.412135,3001 19th St,San Francisco,CA,94110,,publicly_accessible,,,Daily,,puc,POINT (-122.412135 37.760315),9,Mission,2024/03/01 11:23:48 AM,2024/03/01 11:29:55 AM,53,3,2,20,
Hilltop Park Bathrooms,363749136987183442,restroom,0,0,0,0,37.733071258427586,-122.38257772285418,La Salle & Whitney Young Cir,San Francisco,CA,94124,Hilltop Park,publicly_accessible,08:00:00,20:00:00,Daily,,rec,POINT (-122.382577723 37.733071258),10,Bayview Hunters Point,2024/03/01 11:23:48 AM,2024/03/01 11:29:55 AM,86,2,9,1,120
Minnie and Lovie Rec Center - Drinking Fountain,7450972782610917880,drinking_water,1,1,0,0,37.71509077,-122.45890729,650 Capitol,San Francisco,CA,94112,Minnie and Lovie Rec Center,publicly_accessible,08:00:00,20:00:00,Daily,,rec,POINT (-122.458907294 37.715090767),11,Oceanview/Merced/Ingleside,2024/03/01 11:23:48 AM,2024/03/01 11:29:55 AM,81,10,1,24,89
"Heron's Head Park, Eo Center",3577349118403171998,restroom,0,0,0,0,37.73971,-122.37533,32 Jennings Street,San Francisco,CA,94124,Heron's Head Park,publicly_accessible,08:00:00,17:30:00,Daily,,port,POINT (-122.37533 37.73971),10,Bayview Hunters Point,2024/03/01 11:23:48 AM,2024/03/01 11:29:55 AM,56,2,9,1,238
Buena Vista Park - Perennial Bed Drinking Fountains,6933672686293520878,drinking_water,1,0,0,0,37.76985323,-122.43960654,Buena Vista & Haight Streets,San Francisco,CA,94117,Buena Vista Park,publicly_accessible,08:00:00,20:00:00,Daily,,rec,POINT (-122.439606536 37.769853232),8,Haight Ashbury,2024/03/01 11:23:48 AM,2024/03/01 11:29:55 AM,112,7,5,3,152
Willie Woo Woo Wong Clubhouse,833784527962744172,restroom,0,0,0,0,37.79362870980287,-122.4070478215114,850 Sacramento St,San Francisco,CA,94108,Willie Woo Woo Wong Playground,publicly_accessible,08:00:00,20:00:00,Daily,,rec,POINT (-122.407047822 37.79362871),3,Chinatown,2024/03/01 11:23:48 AM,2024/03/01 11:29:55 AM,104,6,3,6,92
Golden Gate Park Model Yacht Clubhouse,2704115105226768367,restroom,0,0,0,0,37.7702010467746,-122.49559211405965,Stanyan & Great Hwy,San Francisco,CA,94122,Golden Gate Park - Section 5,publicly_accessible,08:00:00,20:00:00,Daily,,rec,POINT (-122.495592114 37.770201047),1,Golden Gate Park,2024/03/01 11:23:48 AM,2024/03/01 11:29:55 AM,9,8,4,12,233
Sunset Rec Center - Drinking Fountain - Accessible 1,6107200828837971240,drinking_water,1,0,0,0,37.75712691,-122.48691579,2201 Lawton Street,San Francisco,CA,94122,Sunset Rec Center,publicly_accessible,08:00:00,20:00:00,Daily,,rec,POINT (-122.486915794 37.757126913),4,Sunset/Parkside,2024/03/01 11:23:48 AM,2024/03/01 11:29:55 AM,39,10,7,35,105
Glen Park Rec Center,1653814492978563231,restroom,0,0,0,0,37.73702458595174,-122.44076950544823,Bosworth & O'Shaughnessy,San Francisco,CA,94131,,publicly_accessible,08:00:00,20:00:00,Daily,,rec,POINT (-122.440769505 37.737024586),8,Glen Park,2024/03/01 11:23:48 AM,2024/03/01 11:29:55 AM,96,9,5,10,239
Margaret S.Hayward Playground - Tennis Court 1 Drinking Fountain,5134572989914295543,drinking_water,1,0,0,0,37.78078547,-122.42681556,1016 Laguna,San Francisco,CA,94102,Margaret S.Hayward Playground,publicly_accessible,08:00:00,20:00:00,Daily,,rec,POINT (-122.426815561 37.780785468),5,Western Addition,2024/03/01 11:23:48 AM,2024/03/01 11:29:55 AM,100,4,11,39,140
Telegraph Hill - Pioneer Park - Non Landscaped GReenspace Drinking Fountain,2182033491953730644,drinking_water,1,0,0,0,37.80227023,-122.4059445,Telegraph Hill Boulevard,San Francisco,CA,94133,Telegraph Hill - Pioneer Park,publicly_accessible,08:00:00,20:00:00,Daily,,rec,POINT (-122.405944498 37.802270225),3,North Beach,2024/03/01 11:23:48 AM,2024/03/01 11:29:55 AM,18,6,3,23,227
Duboce Park - Drinking Fountain 1,1124998189968289874,drinking_water,1,1,0,0,37.76941327,-122.43349092,Duboce & Scott Streets,San Francisco,CA,94117,Duboce Park,publicly_accessible,08:00:00,20:00:00,Daily,,rec,POINT (-122.433490923 37.769413267),8,Haight Ashbury,2024/03/01 11:23:48 AM,2024/03/01 11:29:55 AM,28,7,5,3,159
Louis Sutter Playground - Asphalt Pathway Drinking Fountain,291060571342321578,drinking_water,1,1,0,0,37.72247853,-122.41423995,Wayland & University,San Francisco,CA,94134,Louis Sutter Playground,publicly_accessible,08:00:00,20:00:00,Daily,,rec,POINT (-122.414239953 37.722478535),9,McLaren Park,2024/03/01 11:23:48 AM,2024/03/01 11:29:55 AM,73,2,2,19,10
J.P. Murphy Playground - Tennis Court 2 Drinking Fountain,6424412785762951170,drinking_water,1,0,0,0,37.75209419,-122.4650576,1960 9th Ave,San Francisco,CA,94116,J.P. Murphy Playground,publicly_accessible,08:00:00,20:00:00,Daily,,rec,POINT (-122.4650576 37.752094186),7,Inner Sunset,2024/03/01 11:23:48 AM,2024/03/01 11:29:55 AM,45,10,8,14,178
Trocadero Restrooms,745840664498017558,restroom,0,0,0,0,37.73620116449247,-122.478223226046,19th Avenue & Sloat Boulevard,San Francisco,CA,94132,Sigmund Stern Recreation Grove,publicly_accessible,08:00:00,20:00:00,Daily,,rec,POINT (-122.478223226 37.736201164),4,Sunset/Parkside,2024/03/01 11:23:48 AM,2024/03/01 11:29:55 AM,40,10,7,35,112
Haight Ashbury Pit Stop - Stanyan and Waller streets (JCDecaux),7142556760707795661,restroom,0,0,0,0,37.76824,-122.453415,Stanyan and Waller streets (JCDecaux),San Francisco,CA,,,publicly_accessible,,,,,pit_stop,POINT (-122.453415 37.76824),5,Golden Gate Park,2024/03/01 11:23:48 AM,2024/03/01 11:29:55 AM,9,7,11,12,
Marina Branch Library,7187167927732756918,drinking_water,1,0,0,0,37.801373632000036,-122.43413566499999,1890 Chestnut St,San Francisco,CA,94123,Moscone Rec Center,limited_access,,,Daily,"opening_hours = [""Sunday:13:00-17:00"",""Monday:10:00-18:00"",""Tuesday:10:00-18:00"",""Wednesday:13:00-20:00"",""Thursday:10:00-20:00"",""Friday:13:00-18:00"",""Saturday:10:00-18:00"",""Total Weekly Hours:50""]",library,POINT (-122.434135665 37.801373632),2,Marina,2024/03/01 11:23:48 AM,2024/03/01 11:29:55 AM,17,4,6,13,135
24th & Mission,2599759550272697651,drinking_water,0,1,1,0,37.752333,-122.418141,3278 24th Street,San Francisco,CA,94110,,publicly_accessible,,,Daily,,puc,POINT (-122.418141 37.752333),9,Mission,2024/03/01 11:23:48 AM,2024/03/01 11:29:55 AM,53,3,2,20,
Golden Gate Park Polo Field Bathroom,5853016065084613397,restroom,0,0,0,0,37.766786536878065,-122.49279315538868,Stanyan & Great Hwy,San Francisco,CA,94122,Golden Gate Park - Section 5,publicly_accessible,08:00:00,20:00:00,Daily,,rec,POINT (-122.492793155 37.766786537),4,Golden Gate Park,2024/03/01 11:23:48 AM,2024/03/01 11:29:55 AM,9,8,4,12,233
Gleneagles Golf Course Clubhouse,6584855746954938973,restroom,0,0,0,0,37.71599531495544,-122.42456403470891,Mansell & Visitacion,San Francisco,CA,94134,John McLaren Park,publicly_accessible,08:00:00,20:00:00,Daily,,rec,POINT (-122.424564035 37.715995315),10,McLaren Park,2024/03/01 11:23:48 AM,2024/03/01 11:29:55 AM,73,9,9,19,7
Golden Gate Park Senior Center,4150053459881223465,restroom,0,0,0,0,37.77206113069107,-122.49710209722089,6101 Fulton St & 37th Ave,San Francisco,CA,94122,Golden Gate Park - Section 5,publicly_accessible,08:00:00,20:00:00,Daily,,rec,POINT (-122.497102097 37.772061131),1,Outer Richmond,2024/03/01 11:23:48 AM,2024/03/01 11:29:55 AM,8,8,4,29,
Shanti Project,2426436033216087414,drinking_water,0,1,1,0,37.783718,-122.419224,730 Polk St,San Francisco,CA,94109,,publicly_accessible,,,Daily,,puc,POINT (-122.419224 37.783718),5,Tenderloin,2024/03/01 11:23:48 AM,2024/03/01 11:29:55 AM,20,4,10,36,
McLaren Bike Muni Restroom,6153008481896635412,restroom,0,0,0,0,37.714089765896944,-122.42331646635931,,San Francisco,CA,94134,John McLaren Park,publicly_accessible,08:00:00,20:00:00,Daily,,rec,POINT (-122.423316466 37.714089766),10,McLaren Park,2024/03/01 11:23:48 AM,2024/03/01 11:29:55 AM,73,9,9,19,
St Mary's Rec Center,3427043505677543567,restroom,0,0,0,0,37.734068492147976,-122.42170662543276,Murray & Justin Dr,San Francisco,CA,94110,St. Mary's Rec Center,publicly_accessible,08:00:00,20:00:00,Daily,,rec,POINT (-122.421706625 37.734068492),9,Bernal Heights,2024/03/01 11:23:48 AM,2024/03/01 11:29:55 AM,93,9,2,2,109
Argonne Playground - Drinking Fountain,7537486225072276692,drinking_water,1,0,0,0,37.77958072,-122.47777183,18th Avenue & Geary Boulevard,San Francisco,CA,94121,Argonne Playground,publicly_accessible,08:00:00,20:00:00,Daily,,rec,POINT (-122.477771833 37.779580721),1,Outer Richmond,2024/03/01 11:23:48 AM,2024/03/01 11:29:55 AM,5,8,4,29,71
Eureka Valley Rec Center - Drinking Fountain 1,7368809942028272381,drinking_water,1,0,0,0,37.75991576,-122.43629271,100 Collingwood Street,San Francisco,CA,94114,Eureka Valley Rec Center,publicly_accessible,08:00:00,20:00:00,Daily,,rec,POINT (-122.436292709 37.759915763),8,Castro/Upper Market,2024/03/01 11:23:48 AM,2024/03/01 11:29:55 AM,38,3,5,5,208
Golden Gate Park Japanese Tea Garden Female Restroom,2844524173085359393,restroom,0,0,0,0,37.77048005396033,-122.46945822513308,Stanyan & Great Hwy,San Francisco,CA,94118,Golden Gate Park - Section 2,publicly_accessible,08:00:00,20:00:00,Daily,,rec,POINT (-122.469458225 37.770480054),7,Golden Gate Park,2024/03/01 11:23:48 AM,2024/03/01 11:29:55 AM,9,8,4,12,235
Booker T Washington Community Center,3961536016987241368,drinking_water,0,1,0,0,37.78413,-122.446083,820 Presidio Ave,San Francisco,CA,94115,,publicly_accessible,,,Daily,,puc,POINT (-122.446083 37.78413),5,Presidio Heights,2024/03/01 11:23:48 AM,2024/03/01 11:29:55 AM,103,8,11,31,
Carl Larsen Restrooms,7214135946158862142,restroom,0,0,0,0,37.73959733613287,-122.47617041388982,19th Ave & Vicente,San Francisco,CA,94116,Carl Larsen Park,publicly_accessible,08:00:00,20:00:00,Daily,,rec,POINT (-122.476170414 37.739597336),4,Sunset/Parkside,2024/03/01 11:23:48 AM,2024/03/01 11:29:55 AM,40,10,7,35,154
Lafayette Park - HS Drinking Fountain 1,1701452543044844881,drinking_water,1,0,0,0,37.79159623,-122.42817796,Gough & Washington Streets,San Francisco,CA,94109,Lafayette Park,publicly_accessible,08:00:00,20:00:00,Daily,,rec,POINT (-122.428177958 37.79159623),2,Pacific Heights,2024/03/01 11:23:48 AM,2024/03/01 11:29:55 AM,102,4,6,30,212
Lake Merced Boathouse,4000040349104825380,restroom,0,0,0,0,37.725475639313984,-122.49936477533183,Lake Merced Blvd,San Francisco,CA,94132,Lake Merced Park,limited_access,08:00:00,20:00:00,Daily,,rec,POINT (-122.499364775 37.725475639),7,Lakeshore,2024/03/01 11:23:48 AM,2024/03/01 11:29:55 AM,43,10,8,16,2
Angelo J. Rossi Playground - Annex Bathroom Drinking Fountain,1556824093462266854,drinking_water,1,0,0,0,37.77799689,-122.45769443,2 Willard North Street,San Francisco,CA,94118,Angelo J. Rossi Playground,publicly_accessible,08:00:00,20:00:00,Daily,,rec,POINT (-122.457694431 37.777996888),1,Lone Mountain/USF,2024/03/01 11:23:48 AM,2024/03/01 11:29:55 AM,12,8,4,18,204
John McLaren Park - Mansfield Children's Play Area Drinking Fountain,8780129726518220338,drinking_water,1,0,0,0,37.72368986,-122.42308908,Mansell & Visitacion,San Francisco,CA,94134,John McLaren Park,publicly_accessible,08:00:00,20:00:00,Daily,,rec,POINT (-122.423089082 37.723689857),11,McLaren Park,2024/03/01 11:23:48 AM,2024/03/01 11:29:55 AM,73,9,2,19,7
Collis P. Huntington Park - Hardscaped Area Drinking Fountains,2456394613516318918,drinking_water,1,0,0,0,37.79207822,-122.41238227,California & Taylor Streets,San Francisco,CA,94108,Collis P. Huntington Park,publicly_accessible,08:00:00,20:00:00,Daily,,rec,POINT (-122.41238227 37.792078222),3,Nob Hill,2024/03/01 11:23:48 AM,2024/03/01 11:29:55 AM,16,6,3,21,83
Golden Gate Park McLaren Lodge,3416477700079353706,restroom,0,0,0,0,37.771878738717476,-122.4548194738256,501 Stanyan St,San Francisco,CA,94122,Golden Gate Park - Section 1,limited_access,08:00:00,20:00:00,Daily,,rec,POINT (-122.454819474 37.771878739),1,Golden Gate Park,2024/03/01 11:23:48 AM,2024/03/01 11:29:55 AM,9,7,4,12,229
Parkside Square Bathrooms,3083197964417393154,restroom,0,0,0,0,37.73833757806036,-122.48372258799292,28th Ave & Vicente,San Francisco,CA,94116,Parkside Square,publicly_accessible,08:00:00,20:00:00,Daily,,rec,POINT (-122.483722588 37.738337578),4,Sunset/Parkside,2024/03/01 11:23:48 AM,2024/03/01 11:29:55 AM,40,10,7,35,217
Alioto Mini Park - Children's Play Area Drinking Fountain,8724587694701667339,drinking_water,1,0,0,0,37.75899385,-122.41823059,20th & Capp,San Francisco,CA,94110,Alioto Mini Park,limited_access,08:00:00,20:00:00,Daily,,rec,POINT (-122.41823059 37.758993853),9,Mission,2024/03/01 11:23:48 AM,2024/03/01 11:29:55 AM,53,3,2,20,147
Tenderloin Rec Center,6002601376018621454,restroom,0,0,0,0,37.78460087279808,-122.41564732797684,570 Ellis St,San Francisco,CA,94109,Tenderloin Recreation Center,publicly_accessible,08:00:00,20:00:00,Daily,,rec,POINT (-122.415647328 37.784600873),5,Tenderloin,2024/03/01 11:23:48 AM,2024/03/01 11:29:55 AM,20,5,10,36,103
Golden Gate Park Rose Garden Bathroom,4916273171344549738,restroom,0,0,0,0,37.77152256948519,-122.47202101065012,Stanyan & Great Hwy,San Francisco,CA,94118,Golden Gate Park - Section 4,publicly_accessible,08:00:00,20:00:00,Daily,,rec,POINT (-122.472021011 37.771522569),1,Golden Gate Park,2024/03/01 11:23:48 AM,2024/03/01 11:29:55 AM,9,8,4,12,232
Lafayette Park - Non-Landscaped Greenspace Drinking Fountains,5013074392062870570,drinking_water,1,0,0,0,37.79131419,-122.42861962,Gough & Washington Streets,San Francisco,CA,94109,Lafayette Park,publicly_accessible,08:00:00,20:00:00,Daily,,rec,POINT (-122.428619618 37.791314191),2,Pacific Heights,2024/03/01 11:23:48 AM,2024/03/01 11:29:55 AM,102,4,6,30,212
Kid Power Park - Concrete Hardscaped Area Drinking Fountains,1484250037915283505,drinking_water,1,0,0,0,37.76416757,-122.42024528,45 Hoff Street,San Francisco,CA,94110,Kid Power Park,publicly_accessible,08:00:00,20:00:00,Daily,,rec,POINT (-122.420245279 37.764167571),9,Mission,2024/03/01 11:23:48 AM,2024/03/01 11:29:55 AM,53,3,2,20,185
Portsmouth Square Clubhouse,5076840125778629956,restroom,0,0,0,0,37.79502053174189,-122.405338992126,Washington & Kearny St,San Francisco,CA,94108,Portsmouth Square,publicly_accessible,08:00:00,20:00:00,Daily,,rec,POINT (-122.405338992 37.795020532),3,Chinatown,2024/03/01 11:23:48 AM,2024/03/01 11:29:55 AM,104,6,3,6,127
Lessing & Sears Mini Park - DG Pathway Drinking Fountain,6738762138381020,drinking_water,1,0,0,0,37.70863362,-122.45545233,Sickles & Sears,San Francisco,CA,94112,Lessing & Sears Mini Park,publicly_accessible,08:00:00,20:00:00,Daily,,rec,POINT (-122.455452331 37.708633617),11,Outer Mission,2024/03/01 11:23:48 AM,2024/03/01 11:29:55 AM,66,9,1,28,35
John McLaren Park - Oxford Restroom Drinking Fountain,1721225990220766525,drinking_water,1,0,0,1,37.72215533,-122.42057408,Mansell & Visitacion,San Francisco,CA,94134,John McLaren Park,publicly_accessible,08:00:00,20:00:00,Daily,,rec,POINT (-122.420574081 37.722155328),9,McLaren Park,2024/03/01 11:23:48 AM,2024/03/01 11:29:55 AM,73,9,2,19,7
Alamo Square Restrooms,5648809740031184133,restroom,0,0,0,0,37.776086074284265,-122.43432885373971,Hayes & Steiner,San Francisco,CA,94117,Alamo Square,publicly_accessible,08:00:00,20:00:00,Daily,,rec,POINT (-122.434328854 37.776086074),5,Hayes Valley,2024/03/01 11:23:48 AM,2024/03/01 11:29:55 AM,23,4,11,9,67
Hamilton Rec Center,8369580577400438332,restroom,0,0,0,0,37.78453259991993,-122.43517781568733,1900 Geary Blvd,San Francisco,CA,94115,Hamilton Rec Center,publicly_accessible,08:00:00,20:00:00,Daily,,rec,POINT (-122.435177816 37.7845326),5,Japantown,2024/03/01 11:23:48 AM,2024/03/01 11:29:55 AM,103,4,11,15,173
Christopher Clubhouse,2811668174124739375,restroom,0,0,0,0,37.74402066780482,-122.44026813017675,5210 Diamond Heights Boulevard,San Francisco,CA,94131,George Christopher Playground,publicly_accessible,08:00:00,20:00:00,Daily,,rec,POINT (-122.44026813 37.744020668),8,Glen Park,2024/03/01 11:23:48 AM,2024/03/01 11:29:55 AM,57,9,5,10,168
Golden Gate Park Stow Lake Restrooms,452880654814813649,restroom,0,0,0,0,37.77098213320805,-122.47687712991078,,San Francisco,CA,94122,Golden Gate Park - Section 4,publicly_accessible,08:00:00,20:00:00,Daily,,rec,POINT (-122.47687713 37.770982133),7,Golden Gate Park,2024/03/01 11:23:48 AM,2024/03/01 11:29:55 AM,9,8,4,12,232
Mclaren Park Mansell Clubhouse,5091504287788298317,restroom,0,0,0,0,37.71914952357931,-122.41269623182149,Mansell & Visitacion,San Francisco,CA,94134,John McLaren Park,publicly_accessible,08:00:00,20:00:00,Daily,,rec,POINT (-122.412696232 37.719149524),9,McLaren Park,2024/03/01 11:23:48 AM,2024/03/01 11:29:55 AM,73,9,2,19,7
Parque Ninos Unidos - Concrete Pathway Drinking Fountains,6813596201092490531,drinking_water,1,0,0,0,37.75439025,-122.41381918,23rd Street & Treat,San Francisco,CA,94110,Parque Ninos Unidos,limited_access,08:00:00,20:00:00,Daily,,rec,POINT (-122.413819177 37.754390249),9,Mission,2024/03/01 11:23:48 AM,2024/03/01 11:29:55 AM,53,3,2,20,129
Union Square - Concrete Hardscaped Area Drinking Fountain,3868434551555944269,drinking_water,1,0,0,0,37.78787923,-122.40697736,Post & Stockton,San Francisco,CA,94108,Union Square,publicly_accessible,08:00:00,20:00:00,Daily,,rec,POINT (-122.406977363 37.787879233),3,Financial District/South Beach,2024/03/01 11:23:48 AM,2024/03/01 11:29:55 AM,19,6,3,8,5
West Portal Playground - Hardscape Drinking Fountain,2004134229582017956,drinking_water,1,0,0,0,37.74173871,-122.46518014,Ulloa & Lenox Streets,San Francisco,CA,94127,West Portal Playground,publicly_accessible,08:00:00,20:00:00,Daily,,rec,POINT (-122.46518014 37.741738709),7,West of Twin Peaks,2024/03/01 11:23:48 AM,2024/03/01 11:29:55 AM,46,10,8,41,223
Douglass Clubhouse,3198698486750945158,restroom,0,0,0,0,37.74781488539503,-122.43843169048587,26th & Douglass St,San Francisco,CA,94131,Douglass Playground,publicly_accessible,08:00:00,20:00:00,Daily,,rec,POINT (-122.43843169 37.747814885),8,Noe Valley,2024/03/01 11:23:48 AM,2024/03/01 11:29:55 AM,57,3,5,22,206
Tenderloin Pit Stop - Eddy St. and Larkin St. Tenderloin Pit Stop Daily,8111766670791515647,restroom,0,0,0,0,37.78335,-122.41769,Eddy St. and Larkin St.   Tenderloin Pit Stop Daily,San Francisco,CA,,,publicly_accessible,,,,,pit_stop,POINT (-122.41769 37.78335),5,Tenderloin,2024/03/01 11:23:48 AM,2024/03/01 11:29:55 AM,20,5,10,36,
Golden Gate Park Hellman Hollow Restrooms (frmrly Speedway M,1303409436199885989,restroom,0,0,0,0,37.76953475804844,-122.48470587688037,Stanyan & Great Hwy,San Francisco,CA,94122,Golden Gate Park - Section 5,publicly_accessible,08:00:00,20:00:00,Daily,,rec,POINT (-122.484705877 37.769534758),4,Golden Gate Park,2024/03/01 11:23:48 AM,2024/03/01 11:29:55 AM,9,8,4,12,233
Cottage Row Mini Park - Non-Landscaped Greenspace Drinking Fountain,3330043259881691326,drinking_water,1,0,0,0,37.78641126,-122.43227246,Sutter & Fillmore Streets,San Francisco,CA,94115,Cottage Row Mini Park,publicly_accessible,08:00:00,20:00:00,Daily,,rec,POINT (-122.432272462 37.786411265),5,Pacific Heights,2024/03/01 11:23:48 AM,2024/03/01 11:29:55 AM,101,4,11,30,157
Jose Coronado Playground - Asphalt Pathway Drinking Fountain,689428558969353702,drinking_water,1,0,0,0,37.75767693,-122.4150985,21st & Folsom St,San Francisco,CA,94110,Jose Coronado Playground,publicly_accessible,08:00:00,20:00:00,Daily,,rec,POINT (-122.415098501 37.757676934),9,Mission,2024/03/01 11:23:48 AM,2024/03/01 11:29:55 AM,53,3,2,20,181
Aptos: Restrooms,2157191259729629715,restroom,0,0,0,0,37.728526971381946,-122.46602410155539,,San Francisco,CA,94127,Aptos Playground,publicly_accessible,08:00:00,20:00:00,Daily,,rec,POINT (-122.466024102 37.728526971),7,West of Twin Peaks,2024/03/01 11:23:48 AM,2024/03/01 11:29:55 AM,63,10,8,41,70
TNDC: Candlestick Block A,8119082390481302510,drinking_water,0,1,1,0,37.719071,-122.393147,1001 Ingerson Ave,San Francisco,CA,94124,,publicly_accessible,,,Daily,,puc,POINT (-122.393147 37.719071),10,Bayview Hunters Point,2024/03/01 11:23:48 AM,2024/03/01 11:29:55 AM,88,2,9,1,
Mountain Lake Park - Lawn Area Doggy Fountain,2506437727730077933,drinking_water,1,0,0,1,37.78697192,-122.46779969,1 Eleventh Avenue,San Francisco,CA,94118,Mountain Lake Park,publicly_accessible,08:00:00,20:00:00,Daily,,rec,POINT (-122.467799695 37.786971919),1,Inner Richmond,2024/03/01 11:23:48 AM,2024/03/01 11:29:55 AM,4,,6,11,134
Presidio Heights Playground - Children's Play Area Drinking Fountain,2651588572426488666,drinking_water,1,0,0,0,37.78853175,-122.44979582,Clay & Walnut St,San Francisco,CA,94118,Presidio Heights Playground,publicly_accessible,08:00:00,20:00:00,Daily,,rec,POINT (-122.449795825 37.788531752),2,Presidio Heights,2024/03/01 11:23:48 AM,2024/03/01 11:29:55 AM,10,8,6,31,125
Lower Great Highway Judah Restrooms,472633773455991733,restroom,0,0,0,0,37.760245264661876,-122.5095664943657,Great Hwy & Noriega,San Francisco,CA,94122,Lower Great Highway,publicly_accessible,08:00:00,20:00:00,Daily,,rec,POINT (-122.509566494 37.760245265),4,Sunset/Parkside,2024/03/01 11:23:48 AM,2024/03/01 11:29:55 AM,39,10,7,35,20
Golden Gate Park Big Rec Restroom,7412129545205733377,restroom,0,0,0,0,37.76853544308144,-122.46537750554424,Stanyan & Great Hwy,San Francisco,CA,94122,Golden Gate Park - Section 7,publicly_accessible,08:00:00,20:00:00,Daily,,rec,POINT (-122.465377506 37.768535443),7,Golden Gate Park,2024/03/01 11:23:48 AM,2024/03/01 11:29:55 AM,9,8,11,12,228
Noe Valley Courts - Tennis Court Drinking Fountains,7411922416728633771,drinking_water,1,0,0,0,37.75124298,-122.43900086,24th & Douglass St,San Francisco,CA,94114,Noe Valley Courts,publicly_accessible,08:00:00,20:00:00,Daily,,rec,POINT (-122.439000859 37.751242977),8,Noe Valley,2024/03/01 11:23:48 AM,2024/03/01 11:29:55 AM,51,3,5,22,132
Southeast Community Center Water Fountain,8220617072435247540,drinking_water,1,0,0,0,37.742691,-122.387441,1550 Evans Ave,San Francisco,CA,94124,,limited_access,07:00:00,19:00:00,Weekdays,,puc,POINT (-122.387441 37.742691),10,Bayview Hunters Point,2024/03/01 11:23:48 AM,2024/03/01 11:29:55 AM,76,2,9,1,
"Little Embarcadero, J C Decaux",2190890175057459878,restroom,0,0,0,0,37.8084547,-122.4129262,49 Jefferson Street,San Francisco,CA,94133,,publicly_accessible,,,Daily,J C Decaux,port,POINT (-122.4129262 37.8084547),3,North Beach,2024/03/01 11:23:48 AM,2024/03/01 11:29:55 AM,99,6,3,23,
Golden Gate Park - Section 1 - Kezar Stadium Drinking Fountain,8100919214628771485,drinking_water,1,0,0,0,37.7663337,-122.45492153,755 Stanyan,San Francisco,CA,94122,Golden Gate Park - Section 1,publicly_accessible,08:00:00,20:00:00,Daily,,rec,POINT (-122.454921529 37.766333702),5,Golden Gate Park,2024/03/01 11:23:48 AM,2024/03/01 11:29:55 AM,9,7,11,12,229
Grattan Clubhouse,4454891534355363438,restroom,0,0,0,0,37.76275999994231,-122.45197359463144,1180 Stanyan St,San Francisco,CA,94117,Grattan Playground,publicly_accessible,08:00:00,20:00:00,Daily,,rec,POINT (-122.451973595 37.76276),8,Haight Ashbury,2024/03/01 11:23:48 AM,2024/03/01 11:29:55 AM,114,7,11,3,172
Woh Hei Yuen Clubhouse,6335645547559891312,restroom,0,0,0,0,37.79566305889684,-122.41036014796207,922 Jackson Street,San Francisco,CA,94133,Woh Hei Yuen Playground,publicly_accessible,08:00:00,20:00:00,Daily,,rec,POINT (-122.410360148 37.795663059),3,Chinatown,2024/03/01 11:23:48 AM,2024/03/01 11:29:55 AM,16,6,3,6,91
"Heron's Head Park, Eco Center",3013277213648008590,drinking_water,1,1,0,1,37.740119,-122.37597,32 Jennings Street,San Francisco,CA,94124,,publicly_accessible,,,Daily,Near entrance/on park path,port,POINT (-122.37597 37.740119),10,Bayview Hunters Point,2024/03/01 11:23:48 AM,2024/03/01 11:29:55 AM,56,2,9,1,
John McLaren Park - Drinking Fountain/Cooler,1327710262483953289,drinking_water,1,0,0,1,37.72214668,-122.42056918,Mansell & Visitacion,San Francisco,CA,94134,John McLaren Park,publicly_accessible,08:00:00,20:00:00,Daily,,rec,POINT (-122.420569177 37.722146679),9,McLaren Park,2024/03/01 11:23:48 AM,2024/03/01 11:29:55 AM,73,9,2,19,7
Glen Canyon Park - Drinking Fountain/Cooler,5285142657961475424,drinking_water,1,0,0,1,37.73655267,-122.44078843,Elk Street & O'Shaughnessy Blvd,San Francisco,CA,94131,Glen Canyon Park,publicly_accessible,08:00:00,20:00:00,Daily,,rec,POINT (-122.440788435 37.736552673),8,Glen Park,2024/03/01 11:23:48 AM,2024/03/01 11:29:55 AM,96,9,5,10,239
Portsmouth Square - Concrete Pathway Drinking Fountain,4953331443556349059,drinking_water,1,0,0,0,37.79508448,-122.40538466,Washington & Walter Lum Place,San Francisco,CA,94108,Portsmouth Square,publicly_accessible,08:00:00,20:00:00,Daily,,rec,POINT (-122.405384659 37.795084477),3,Chinatown,2024/03/01 11:23:48 AM,2024/03/01 11:29:55 AM,104,6,3,6,127
Garfield Square Community Pool,5735591419346594273,restroom,0,0,0,0,37.74997657477497,-122.41197072448084,26th & Harrison St,San Francisco,CA,94110,Garfield Square,publicly_accessible,08:00:00,20:00:00,Daily,,rec,POINT (-122.411970724 37.749976575),9,Mission,2024/03/01 11:23:48 AM,2024/03/01 11:29:55 AM,53,3,2,20,165
Portsmouth Square Bathrooms,5603727937050556653,restroom,0,0,0,0,37.79461140159618,-122.4056381047682,Washington & Walter Lum Pl,San Francisco,CA,94108,Portsmouth Square,publicly_accessible,08:00:00,20:00:00,Daily,,rec,POINT (-122.405638105 37.794611402),3,Chinatown,2024/03/01 11:23:48 AM,2024/03/01 11:29:55 AM,104,6,3,6,127
Coleridge Mini Park - Concrete Pathway Drinking Fountain,8807706955663165370,drinking_water,1,0,0,0,37.74428394,-122.41949465,Coleridge & Esmeralda Streets,San Francisco,CA,94110,Coleridge Mini Park,publicly_accessible,08:00:00,20:00:00,Daily,,rec,POINT (-122.419494653 37.744283939),9,Bernal Heights,2024/03/01 11:23:48 AM,2024/03/01 11:29:55 AM,83,9,2,2,156
Upper Noe Rec Center - Dog Play Area Drinking Fountain,9061434115000494940,drinking_water,1,0,0,0,37.74272962,-122.42702129,Day & Sanchez St,San Francisco,CA,94131,Upper Noe Rec Center,publicly_accessible,08:00:00,20:00:00,Daily,,rec,POINT (-122.427021288 37.742729619),8,Noe Valley,2024/03/01 11:23:48 AM,2024/03/01 11:29:55 AM,84,9,5,22,100
Moscone Rec Center,4678029647536132904,restroom,0,0,0,0,37.80148454651481,-122.4331857700532,1800 Chestnut St,San Francisco,CA,94123,Moscone Rec Center,publicly_accessible,08:00:00,20:00:00,Daily,,rec,POINT (-122.43318577 37.801484547),2,Marina,2024/03/01 11:23:48 AM,2024/03/01 11:29:55 AM,17,4,6,13,135
Mission Rec Center - Children's Play Area Drinking Fountains,8020804337672981638,drinking_water,1,0,0,0,37.7581285,-122.413062,745 Treat St,San Francisco,CA,94110,Mission Rec Center,limited_access,08:00:00,20:00:00,Daily,,rec,POINT (-122.413062003 37.758128501),9,Mission,2024/03/01 11:23:48 AM,2024/03/01 11:29:55 AM,53,3,2,20,215
Harbormasters Office,7699958693289885831,restroom,0,0,0,0,37.806636388938635,-122.44262144692848,3950 Scott St,San Francisco,CA,94123,Yacht Harbor and Marina Green,limited_access,08:00:00,20:00:00,Daily,,rec,POINT (-122.442621447 37.806636389),,Marina,2024/03/01 11:23:48 AM,2024/03/01 11:29:55 AM,17,4,6,13,90
Excelsior Playground - Children's Play Area 2 Drinking Fountain,6577167529232739268,drinking_water,1,1,0,0,37.72008416,-122.43381225,Russia Ave & Madrid,San Francisco,CA,94112,Excelsior Playground,limited_access,08:00:00,20:00:00,Daily,,rec,POINT (-122.43381225 37.720084158),11,Excelsior,2024/03/01 11:23:48 AM,2024/03/01 11:29:55 AM,90,9,1,7,161
Martin Luther King Jr Pool,8462497620449821810,restroom,0,0,0,0,37.72539339193987,-122.39337823568235,3rd & Armstrong,San Francisco,CA,94124,Bayview K.C. Jones Playground,publicly_accessible,08:00:00,20:00:00,Daily,,rec,POINT (-122.393378236 37.725393392),10,Bayview Hunters Point,2024/03/01 11:23:48 AM,2024/03/01 11:29:55 AM,86,2,9,1,77
Alamo Square - Asphalt Pathway Drinking Fountain,4280637607294235725,drinking_water,1,1,0,0,37.77667455,-122.43390501,Hayes & Steiner,San Francisco,CA,94117,Alamo Square,publicly_accessible,08:00:00,20:00:00,Daily,,rec,POINT (-122.433905005 37.776674549),5,Hayes Valley,2024/03/01 11:23:48 AM,2024/03/01 11:29:55 AM,23,4,11,9,67
,8817975702393619368,,0,0,0,0,,,,,,,,,,,,,port,,,,2024/03/01 11:23:48 AM,2024/03/01 11:29:55 AM,,,,,
Crocker Amazon Bocce Ball Courts,8999648321766584695,restroom,0,0,0,0,37.71489675893955,-122.43204290970581,Moscow & Geneva Streets,San Francisco,CA,94134,Crocker Amazon Playground,publicly_accessible,08:00:00,20:00:00,Daily,,rec,POINT (-122.43204291 37.714896759),11,Excelsior,2024/03/01 11:23:48 AM,2024/03/01 11:29:55 AM,58,9,1,7,158
SF SPCA,6928189952947179522,drinking_water,0,1,1,0,37.765617,-122.412366,255 Alabama St,San Francisco,CA,94103,,publicly_accessible,,,Daily,,puc,POINT (-122.412366 37.765617),9,Mission,2024/03/01 11:23:48 AM,2024/03/01 11:29:55 AM,53,3,2,20,
J.P. Murphy Playground - Multi-Use Paved Play Area Drinking Fountain,8010893446617925886,drinking_water,1,0,0,0,37.7515454,-122.46518978,1960 9th Ave,San Francisco,CA,94116,J.P. Murphy Playground,publicly_accessible,08:00:00,20:00:00,Daily,,rec,POINT (-122.465189783 37.751545398),7,Inner Sunset,2024/03/01 11:23:48 AM,2024/03/01 11:29:55 AM,45,10,8,14,178
Cayuga Playground - Hardscape Area Drinking Fountain,8789857657291252557,drinking_water,1,0,0,0,37.71432704,-122.44986996,301 Naglee Avenue,San Francisco,CA,94112,Cayuga Playground,publicly_accessible,08:00:00,20:00:00,Daily,,rec,POINT (-122.449869964 37.714327039),11,Outer Mission,2024/03/01 11:23:48 AM,2024/03/01 11:29:55 AM,66,9,1,28,205
Hilltop Park,5266853380894405697,drinking_water,0,1,1,0,37.73328,-122.38366,45 Progress St,San Francisco,CA,94124,,publicly_accessible,,,Daily,,puc,POINT (-122.38366 37.73328),10,Bayview Hunters Point,2024/03/01 11:23:48 AM,2024/03/01 11:29:55 AM,86,2,9,1,
Mission Playground - Concrete Path Drinking Fountain,4229216451584641891,drinking_water,1,1,0,0,37.75944302,-122.42240856,19th Street & Linda,San Francisco,CA,94110,Mission Playground,publicly_accessible,08:00:00,20:00:00,Daily,,rec,POINT (-122.422408561 37.759443017),9,Mission,2024/03/01 11:23:48 AM,2024/03/01 11:29:55 AM,37,3,5,20,214
Gilman Bathrooms,7956759552719151542,restroom,0,0,0,0,37.71718353263958,-122.38878585838471,Gilman Ave & Griffith,San Francisco,CA,94124,Gilman Playground,publicly_accessible,08:00:00,20:00:00,Daily,,rec,POINT (-122.388785858 37.717183533),10,Bayview Hunters Point,2024/03/01 11:23:48 AM,2024/03/01 11:29:55 AM,88,2,9,1,169
Minnie and Lovie Rec Center - Drinking Fountain,4957285830811889691,drinking_water,1,0,0,0,37.71511351,-122.45624227,650 Capitol,San Francisco,CA,94112,Minnie and Lovie Rec Center,publicly_accessible,08:00:00,20:00:00,Daily,,rec,POINT (-122.456242275 37.715113508),11,Oceanview/Merced/Ingleside,2024/03/01 11:23:48 AM,2024/03/01 11:29:55 AM,81,10,1,24,89
Golden Gate Park Robin Williams Meadow Restroom,2718881212130349365,restroom,0,0,0,0,37.768200610646815,-122.45894632547952,Robin Williams Meadow,San Francisco,CA,94122,Golden Gate Park - Section 7,publicly_accessible,08:00:00,20:00:00,Daily,,rec,POINT (-122.458946325 37.768200611),7,Golden Gate Park,2024/03/01 11:23:48 AM,2024/03/01 11:29:55 AM,9,7,11,12,228
Golden Gate Park Stanyan Kiosk,5807497384622026071,restroom,0,0,0,0,37.769905471317514,-122.45428183894543,Stanyan & Page,San Francisco,CA,94122,Golden Gate Park - Section 1,limited_access,08:00:00,20:00:00,Daily,,rec,POINT (-122.454281839 37.769905471),5,Golden Gate Park,2024/03/01 11:23:48 AM,2024/03/01 11:29:55 AM,9,7,11,12,229
Youngblood Coleman Clubhouse,1204923542090208152,restroom,0,0,0,0,37.73797742477527,-122.3841349642358,Mendell & Galvez,San Francisco,CA,94124,Youngblood-Coleman Playground,publicly_accessible,08:00:00,20:00:00,Daily,,rec,POINT (-122.384134964 37.737977425),10,Bayview Hunters Point,2024/03/01 11:23:48 AM,2024/03/01 11:29:55 AM,86,2,9,1,224
Richmond PG Clubhouse,5112462014071340856,restroom,0,0,0,0,37.78532679425362,-122.47796162328653,149 18th Ave,San Francisco,CA,94121,Richmond Playground,publicly_accessible,08:00:00,20:00:00,Daily,,rec,POINT (-122.477961623 37.785326794),1,Outer Richmond,2024/03/01 11:23:48 AM,2024/03/01 11:29:55 AM,2,8,4,29,122
Ball Diamond 1 Grandstand,4785327987590003465,restroom,0,0,0,0,37.71497905236457,-122.43181593973115,Moscow & Geneva Streets,San Francisco,CA,94134,Crocker Amazon Playground,publicly_accessible,08:00:00,20:00:00,Daily,,rec,POINT (-122.43181594 37.714979052),11,Excelsior,2024/03/01 11:23:48 AM,2024/03/01 11:29:55 AM,58,9,1,7,158
Pier 14,760719995364998060,drinking_water,1,1,0,0,37.793789,-122.392106,Embarcadero and Broadway,San Francisco,CA,94105,,publicly_accessible,,,Daily,On sidewalk,port,POINT (-122.392106 37.793789),6,Financial District/South Beach,2024/03/01 11:23:48 AM,2024/03/01 11:29:55 AM,108,1,10,8,
Washington Square - Bottle Filling Station,4901972382109898846,drinking_water,1,1,0,0,37.80052342,-122.40978818,Filbert & Stockton,San Francisco,CA,94133,Washington Square,publicly_accessible,08:00:00,20:00:00,Daily,,rec,POINT (-122.409788177 37.800523424),3,North Beach,2024/03/01 11:23:48 AM,2024/03/01 11:29:55 AM,106,6,3,23,94
Gilman Playground - Pathway Drinking Fountain,5751041117948465640,drinking_water,1,0,0,0,37.71732522,-122.3871789,Gilman Avenue & Griffith,San Francisco,CA,94124,Gilman Playground,publicly_accessible,08:00:00,20:00:00,Daily,,rec,POINT (-122.387178895 37.717325224),10,Bayview Hunters Point,2024/03/01 11:23:48 AM,2024/03/01 11:29:55 AM,88,2,9,1,169
Chalmers: Clubhouse,4935046314119674759,restroom,0,0,0,0,37.70950402403031,-122.44706570343223,670 Brunswick & Lowell Roemer,San Francisco,CA,94112,Alice Chalmers Playground,publicly_accessible,08:00:00,20:00:00,Daily,,rec,POINT (-122.447065703 37.709504024),11,Excelsior,2024/03/01 11:23:48 AM,2024/03/01 11:29:55 AM,58,9,1,7,68
Franklin Square - Asphalt Pathway Drinking Fountain,9092680535449039077,drinking_water,1,1,0,0,37.76480717,-122.40910428,16th & Bryant Streets,San Francisco,CA,94110,Franklin Square,publicly_accessible,08:00:00,20:00:00,Daily,,rec,POINT (-122.409104276 37.76480717),9,Mission,2024/03/01 11:23:48 AM,2024/03/01 11:29:55 AM,53,3,9,20,164
Presidio Wall Clubhouse,1155075361421330535,restroom,0,0,0,0,37.79128986545472,-122.45377961711995,West Pacific Ave & Spruce St,San Francisco,CA,94129,Presidio Wall Playground,publicly_accessible,08:00:00,20:00:00,Daily,,rec,POINT (-122.453779617 37.791289865),2,Presidio,2024/03/01 11:23:48 AM,2024/03/01 11:29:55 AM,3,,6,27,19
Excelsior Clubhouse,7624069768620183306,restroom,0,0,0,0,37.72023454953466,-122.4335855121827,Russia Ave & Madrid,San Francisco,CA,94112,Excelsior Playground,publicly_accessible,08:00:00,20:00:00,Daily,,rec,POINT (-122.433585512 37.72023455),11,Excelsior,2024/03/01 11:23:48 AM,2024/03/01 11:29:55 AM,90,9,1,7,161
Palega Rec Center,1380573470462414493,restroom,0,0,0,0,37.72920701530304,-122.40974184499017,500 Felton,San Francisco,CA,94134,Palega Playground,publicly_accessible,08:00:00,20:00:00,Daily,,rec,POINT (-122.409741845 37.729207015),9,Portola,2024/03/01 11:23:48 AM,2024/03/01 11:29:55 AM,91,2,2,25,130
Gilman Clubhouse,5040493411167008693,restroom,0,0,0,0,37.71680106324009,-122.38835499126655,Gilman Ave & Griffith,San Francisco,CA,94124,Gilman Playground,publicly_accessible,08:00:00,20:00:00,Daily,,rec,POINT (-122.388354991 37.716801063),10,Bayview Hunters Point,2024/03/01 11:23:48 AM,2024/03/01 11:29:55 AM,88,2,9,1,169
Mountain Lake Restrooms,7662904050712720207,restroom,0,0,0,0,37.787022939909065,-122.47178157008233,12th Ave & Lake St,San Francisco,CA,94118,Mountain Lake Park,publicly_accessible,08:00:00,20:00:00,Daily,,rec,POINT (-122.47178157 37.78702294),1,Inner Richmond,2024/03/01 11:23:48 AM,2024/03/01 11:29:55 AM,4,,6,11,134
Pine Lake Park Clubhouse,2223355946498313310,restroom,0,0,0,0,37.73599378709451,-122.48720705531566,Sloat Blvd & Vale St,San Francisco,CA,94132,Pine Lake Park,publicly_accessible,08:00:00,20:00:00,Daily,,rec,POINT (-122.487207055 37.735993787),4,Sunset/Parkside,2024/03/01 11:23:48 AM,2024/03/01 11:29:55 AM,40,10,7,35,218
Sunnyside Playground - Asphalt Pathway Drinking Fountains,774824152511479189,drinking_water,1,0,0,0,37.73385632,-122.44819922,233 Melrose Avenue,San Francisco,CA,94127,Sunnyside Playground,publicly_accessible,08:00:00,20:00:00,Daily,,rec,POINT (-122.448199217 37.733856319),7,West of Twin Peaks,2024/03/01 11:23:48 AM,2024/03/01 11:29:55 AM,95,9,8,41,222
DuPont Tennis Courts - Hardscaped Area Drinking Fountain,8824246048544412087,drinking_water,1,0,0,0,37.78286232,-122.49084131,336 - 31st Avenue,San Francisco,CA,94121,DuPont Tennis Courts,publicly_accessible,08:00:00,20:00:00,Daily,,rec,POINT (-122.490841311 37.782862318),1,Outer Richmond,2024/03/01 11:23:48 AM,2024/03/01 11:29:55 AM,8,8,4,29,207
St. Anthony's,5693325085513675348,drinking_water,0,1,1,0,37.78205,-122.413147,150 Golden Gate Ave,San Francisco,CA,94102,,publicly_accessible,,,Daily,,puc,POINT (-122.413147 37.78205),5,Tenderloin,2024/03/01 11:23:48 AM,2024/03/01 11:29:55 AM,20,5,10,36,
Miraloma Clubhouse,1921650187311049316,restroom,0,0,0,0,37.73912951748138,-122.44952483224185,Omar & Sequoia Way,San Francisco,CA,94127,Miraloma Playground,publicly_accessible,08:00:00,20:00:00,Daily,,rec,POINT (-122.449524832 37.739129517),7,West of Twin Peaks,2024/03/01 11:23:48 AM,2024/03/01 11:29:55 AM,72,9,8,41,136
Golden Gate Park Conservatory Bathroom,2595978294909240049,restroom,0,0,0,0,37.77260710998563,-122.46078915541334,Stanyan & Great Hwy,San Francisco,CA,94122,Golden Gate Park - Section 3,publicly_accessible,08:00:00,20:00:00,Daily,,rec,POINT (-122.460789155 37.77260711),1,Golden Gate Park,2024/03/01 11:23:48 AM,2024/03/01 11:29:55 AM,9,7,4,12,231
Tenderloin Pit Stop - 474 O'Farrell Street,3273606294984689376,restroom,0,0,0,0,37.7859,-122.411934,474 O'Farrell Street,San Francisco,CA,,,publicly_accessible,,,,,pit_stop,POINT (-122.411934 37.7859),5,Tenderloin,2024/03/01 11:23:48 AM,2024/03/01 11:29:55 AM,20,5,10,36,
McCoppin Square Clubhouse,341541798497557024,restroom,0,0,0,0,37.74355159416752,-122.48070841028542,24th & Taraval,San Francisco,CA,94116,McCoppin Square,publicly_accessible,08:00:00,20:00:00,Daily,,rec,POINT (-122.48070841 37.743551594),4,Sunset/Parkside,2024/03/01 11:23:48 AM,2024/03/01 11:29:55 AM,40,10,7,35,139
Cow Hollow Clubhouse,268193261574787356,restroom,0,0,0,0,37.79738737194479,-122.44467421688198,Baker & Filbert St,San Francisco,CA,94123,Cow Hollow Playground,publicly_accessible,08:00:00,20:00:00,Daily,,rec,POINT (-122.444674217 37.797387372),2,Marina,2024/03/01 11:23:48 AM,2024/03/01 11:29:55 AM,14,4,6,13,13
Anna E. Waden Branch Library (Bayview),4747163986582751508,drinking_water,1,0,0,0,37.732484671000066,-122.39108620099995,5075 03rd St,San Francisco,CA,94124,,limited_access,,,Daily,"opening_hours = [""Sunday:13:00-17:00"",""Monday:10:00-18:00"",""Tuesday:10:00-20:00"",""Wednesday:10:00-20:00"",""Thursday:10:00-20:00"",""Friday:13:00-18:00"",""Saturday:10:00-18:00"",""Total Weekly Hours:55""]",library,POINT (-122.391086201 37.732484671),10,Bayview Hunters Point,2024/03/01 11:23:48 AM,2024/03/01 11:29:55 AM,86,2,9,1,
J. P. Murphy Clubhouse,5312098977276546560,restroom,0,0,0,0,37.7515640334025,-122.46522255058386,1960 9th Ave,San Francisco,CA,94116,J.P. Murphy Playground,publicly_accessible,08:00:00,20:00:00,Daily,,rec,POINT (-122.465222551 37.751564033),7,Inner Sunset,2024/03/01 11:23:48 AM,2024/03/01 11:29:55 AM,45,10,8,14,178
Golden Gate Park Kezar Stadium,3872681446707874355,restroom,0,0,0,0,37.7664188799638,-122.45600136403566,755 Stanyan,San Francisco,CA,94122,Golden Gate Park - Section 1,publicly_accessible,08:00:00,20:00:00,Daily,,rec,POINT (-122.456001364 37.76641888),5,Golden Gate Park,2024/03/01 11:23:48 AM,2024/03/01 11:29:55 AM,9,7,11,12,229
Palega Playground - Concrete Path Hi-low Drinking Fountain,3884461683335560849,drinking_water,1,1,0,0,37.72937032,-122.40967734,500 Felton Street,San Francisco,CA,94134,Palega Playground,publicly_accessible,08:00:00,20:00:00,Daily,,rec,POINT (-122.409677341 37.729370317),9,Portola,2024/03/01 11:23:48 AM,2024/03/01 11:29:55 AM,91,2,2,25,130
John McLaren Park - West Turf Drinking Fountain,1261287868802358155,drinking_water,1,0,0,0,37.72325484,-122.42086563,Mansell & Visitacion,San Francisco,CA,94134,John McLaren Park,publicly_accessible,08:00:00,20:00:00,Daily,,rec,POINT (-122.420865625 37.723254836),11,McLaren Park,2024/03/01 11:23:48 AM,2024/03/01 11:29:55 AM,73,9,2,19,7
Civic Center Pit Stop - Grove and Larkin streets (JCDecaux),400838196920771509,restroom,0,0,0,0,37.778732,-122.41693,Grove and Larkin streets (JCDecaux),San Francisco,CA,,,publicly_accessible,,,,,pit_stop,POINT (-122.41693 37.778732),5,Tenderloin,2024/03/01 11:23:48 AM,2024/03/01 11:29:55 AM,21,4,10,36,
Minnie and Lovie Rec Center - Drinking Fountain,1220332958750808487,drinking_water,1,0,0,0,37.71604517,-122.45732735,650 Capitol,San Francisco,CA,94112,Minnie and Lovie Rec Center,publicly_accessible,08:00:00,20:00:00,Daily,,rec,POINT (-122.457327353 37.716045166),11,Oceanview/Merced/Ingleside,2024/03/01 11:23:48 AM,2024/03/01 11:29:55 AM,81,10,1,24,89
Ingleside Branch,4343473954297379462,drinking_water,1,0,0,0,37.72405708700006,-122.45626482999995,1298 Ocean Ave,San Francisco,CA,94112,,limited_access,,,Daily,"opening_hours = [""Sunday:13:00-17:00"",""Monday:10:00-18:00"",""Tuesday:10:00-18:00"",""Wednesday:10:00-20:00"",""Thursday:12:00-19:00"",""Friday:13:00-18:00"",""Saturday:10:00-18:00"",""Total Weekly Hours:50""]",library,POINT (-122.45626483 37.724057087),7,West of Twin Peaks,2024/03/01 11:23:48 AM,2024/03/01 11:29:55 AM,71,9,8,41,
Golden Gate Park - Section 5 - JFK @ Transverse Drive Drinking Fountain,3711007996261344558,drinking_water,1,0,0,0,37.77055697,-122.48014119,Golden Gate Park,San Francisco,CA,94122,Golden Gate Park - Section 5,publicly_accessible,08:00:00,20:00:00,Daily,,rec,POINT (-122.480141187 37.770556975),1,Golden Gate Park,2024/03/01 11:23:48 AM,2024/03/01 11:29:55 AM,9,8,4,12,232
Sunnyside Playground Restrooms,7362251202804633462,restroom,0,0,0,0,37.73389886280963,-122.44827785752243,233 Melrose Avenue,San Francisco,CA,94127,Sunnyside Playground,publicly_accessible,08:00:00,20:00:00,Daily,,rec,POINT (-122.448277858 37.733898863),7,West of Twin Peaks,2024/03/01 11:23:48 AM,2024/03/01 11:29:55 AM,95,9,8,41,222
Sunset Branch Library,4394614105614042565,drinking_water,1,0,0,0,37.76334875500004,-122.47631075399994,1305 18th Ave,San Francisco,CA,94122,,limited_access,,,Daily,"opening_hours = [""Sunday:13:00-17:00"",""Monday:10:00-18:00"",""Tuesday:10:00-20:00"",""Wednesday:10:00-20:00"",""Thursday:10:00-20:00"",""Friday:13:00-18:00"",""Saturday:10:00-18:00"",""Total Weekly Hours:55""]",library,POINT (-122.476310754 37.763348755),7,Inner Sunset,2024/03/01 11:23:48 AM,2024/03/01 11:29:55 AM,109,10,7,14,
Glen Canyon Park - Asphalt Pathway Dog Drinking Fountain,3698226825822333411,drinking_water,1,0,0,1,37.73663636,-122.44061655,Elk Street & O'Shaughnessy Blvd,San Francisco,CA,94131,Glen Canyon Park,limited_access,08:00:00,20:00:00,Daily,,rec,POINT (-122.44061655 37.736636359),8,Glen Park,2024/03/01 11:23:48 AM,2024/03/01 11:29:55 AM,96,9,5,10,239
In Chan Kaajal Park - Concrete Path Drinking Fountain,2750772783721151621,drinking_water,1,1,0,0,37.76379713,-122.41555595,17th & Folsom St,San Francisco,CA,94110,In Chan Kaajal Park,publicly_accessible,08:00:00,20:00:00,Daily,Bottle filler,rec,POINT (-122.41555595 37.763797128),9,Mission,2024/03/01 11:23:48 AM,2024/03/01 11:29:55 AM,53,3,2,20,203
Bayview Pit Stop - Mendell Plaza Bayview Pit Stop Daily,8982348774902252933,restroom,0,0,0,0,37.73404,-122.390816,Mendell Plaza   Bayview Pit Stop Daily,San Francisco,CA,,,publicly_accessible,,,,,pit_stop,POINT (-122.390816 37.73404),10,Bayview Hunters Point,2024/03/01 11:23:48 AM,2024/03/01 11:29:55 AM,86,2,9,1,
Golden Gate Park - Section 1 - Hayes St Entrance Drinking Fountain,5179373945105890645,drinking_water,1,0,0,0,37.77269576,-122.45520271,Golden Gate Park,San Francisco,CA,94122,Golden Gate Park - Section 1,publicly_accessible,08:00:00,20:00:00,Daily,,rec,POINT (-122.455202711 37.772695757),1,Golden Gate Park,2024/03/01 11:23:48 AM,2024/03/01 11:29:55 AM,9,7,4,12,229
Golden Gate Park Kezar Pavilion,5429619544843038820,restroom,0,0,0,0,37.7674506182551,-122.45405121900109,755 Stanyan,San Francisco,CA,94122,Golden Gate Park - Section 1,publicly_accessible,08:00:00,20:00:00,Daily,,rec,POINT (-122.454051219 37.767450618),5,Golden Gate Park,2024/03/01 11:23:48 AM,2024/03/01 11:29:55 AM,9,7,11,12,229
Joe DiMaggio Clubhouse/Pool,3522461969507678659,restroom,0,0,0,0,37.802766621583984,-122.41217825917867,651 Lombard St,San Francisco,CA,94133,Joe DiMaggio Playground,publicly_accessible,08:00:00,20:00:00,Daily,,rec,POINT (-122.412178259 37.802766622),3,North Beach,2024/03/01 11:23:48 AM,2024/03/01 11:29:55 AM,106,6,3,23,195
Anza Branch Library,7669133687822072481,drinking_water,1,0,0,0,37.77856950700004,-122.49725809499995,550 37th Ave,San Francisco,CA,94121,,limited_access,,,Daily,"opening_hours = [""Sunday:13:00-17:00"",""Monday:10:00-18:00"",""Tuesday:10:00-20:00"",""Wednesday:13:00-20:00"",""Thursday:10:00-18:00"",""Friday:13:00-18:00"",""Saturday:10:00-18:00"",""Total Weekly Hours:50""]",library,POINT (-122.497258095 37.778569507),1,Outer Richmond,2024/03/01 11:23:48 AM,2024/03/01 11:29:55 AM,8,8,4,29,
Moscone Bathrooms,3218658186314579548,restroom,0,0,0,0,37.80220197759071,-122.43462802212953,1800 Chestnut Street,San Francisco,CA,94123,Moscone Rec Center,publicly_accessible,08:00:00,20:00:00,Daily,,rec,POINT (-122.434628022 37.802201978),2,Marina,2024/03/01 11:23:48 AM,2024/03/01 11:29:55 AM,17,4,6,13,135
Junipero Serra Clubhouse,639104613465753824,restroom,0,0,0,0,37.72509664499298,-122.47409862618227,300 Stonecrest Dr,San Francisco,CA,94132,Junipero Serra Playground,publicly_accessible,08:00:00,20:00:00,Daily,,rec,POINT (-122.474098626 37.725096645),7,West of Twin Peaks,2024/03/01 11:23:48 AM,2024/03/01 11:29:55 AM,41,10,8,41,182
"SFFD, J C Decaux",4912770129684159724,restroom,0,0,0,0,37.7903437,-122.3889328,389 The Embarcadero S,San Francisco,CA,94105,,publicly_accessible,,,Daily,J C Decaux,port,POINT (-122.3889328 37.7903437),6,Financial District/South Beach,2024/03/01 11:23:48 AM,2024/03/01 11:29:55 AM,30,1,10,8,
Jose Coronado Clubhouse,2650616189117355099,restroom,0,0,0,0,37.757734451779804,-122.41514038511933,21st & Folsom,San Francisco,CA,94110,Jose Coronado Playground,publicly_accessible,08:00:00,20:00:00,Daily,,rec,POINT (-122.415140385 37.757734452),9,Mission,2024/03/01 11:23:48 AM,2024/03/01 11:29:55 AM,53,3,2,20,181
Parque Ninos Unidos Clubhouse,423313379263490907,restroom,0,0,0,0,37.75435237742527,-122.41391608847292,23rd & Treat St,San Francisco,CA,94110,Parque Ninos Unidos,publicly_accessible,08:00:00,20:00:00,Daily,,rec,POINT (-122.413916088 37.754352377),9,Mission,2024/03/01 11:23:48 AM,2024/03/01 11:29:55 AM,53,3,2,20,
Golden Gate Park Millwright's House,2023776853834656901,restroom,0,0,0,0,37.76519674032705,-122.5084366108335,,San Francisco,CA,94122,Golden Gate Park - Section 6,limited_access,08:00:00,20:00:00,Daily,,rec,POINT (-122.508436611 37.76519674),4,Golden Gate Park,2024/03/01 11:23:48 AM,2024/03/01 11:29:55 AM,9,8,4,12,234
Mid-Market Pit Stop - Hallidie Plaza (JCDecaux),3464628251007818350,restroom,0,0,0,0,37.784412,-122.40778,Hallidie Plaza (JCDecaux),San Francisco,CA,,,publicly_accessible,,,,,pit_stop,POINT (-122.40778 37.784412),3,Tenderloin,2024/03/01 11:23:48 AM,2024/03/01 11:29:55 AM,19,5,3,36,
Richmond Rec Center,6492148637033534034,restroom,0,0,0,0,37.78340553019821,-122.47809345322518,251 18th Ave,San Francisco,CA,94121,Richmond Rec Center,publicly_accessible,08:00:00,20:00:00,Daily,,rec,POINT (-122.478093453 37.78340553),1,Outer Richmond,2024/03/01 11:23:48 AM,2024/03/01 11:29:55 AM,5,8,4,29,121
Alta Plaza Park - Asphalt Pathway Drinking Fountain,6013861082954760476,drinking_water,1,0,0,0,37.79123999,-122.43819734,Jackson & Steiner,San Francisco,CA,94115,Alta Plaza Park,publicly_accessible,08:00:00,20:00:00,Daily,,rec,POINT (-122.438197345 37.791239987),2,Pacific Heights,2024/03/01 11:23:48 AM,2024/03/01 11:29:55 AM,102,4,6,30,149
Mission Dolores North Restrooms,6020738412176969080,restroom,0,0,0,0,37.7607935419036,-122.42768731052698,19th & Dolores St,San Francisco,CA,94114,Mission Dolores Park,publicly_accessible,08:00:00,20:00:00,Daily,,rec,POINT (-122.427687311 37.760793542),8,Castro/Upper Market,2024/03/01 11:23:48 AM,2024/03/01 11:29:55 AM,37,3,5,5,213
Washington Square - Drinking Fountain/Cooler,2932039806164345859,drinking_water,1,1,0,0,37.80103016,-122.41062974,Filbert & Stockton,San Francisco,CA,94133,Washington Square,publicly_accessible,08:00:00,20:00:00,Daily,,rec,POINT (-122.410629743 37.801030161),3,North Beach,2024/03/01 11:23:48 AM,2024/03/01 11:29:55 AM,106,6,3,23,94
Mission Pit Stop - Franklin Square Park in the parking lot adjacent to 300 Hampshire St.,7195330164682834754,restroom,0,0,0,0,37.765186,-122.40833,Franklin Square Park in the parking lot adjacent to 300 Hampshire St.,San Francisco,CA,,,publicly_accessible,,,,,pit_stop,POINT (-122.40833 37.765186),9,Mission,2024/03/01 11:23:48 AM,2024/03/01 11:29:55 AM,53,3,9,20,
West Sunset Clubhouse,1047867860894292603,restroom,0,0,0,0,37.75066759998502,-122.4983572127628,3223 Ortega Street,San Francisco,CA,94116,West Sunset Playground,publicly_accessible,08:00:00,20:00:00,Daily,,rec,POINT (-122.498357213 37.7506676),4,Sunset/Parkside,2024/03/01 11:23:48 AM,2024/03/01 11:29:55 AM,39,10,7,35,93
Francisco Restroom,6436225575973073163,restroom,0,0,0,0,37.803536458937316,-122.42122885339644,Hyde & Bay,San Francisco,CA,94109,Francisco Park,publicly_accessible,08:00:00,20:00:00,Daily,,rec,POINT (-122.421228853 37.803536459),2,Russian Hill,2024/03/01 11:23:48 AM,2024/03/01 11:29:55 AM,107,6,6,32,193
Park Branch Library,3072352331007374856,drinking_water,1,0,0,0,37.770135518000075,-122.45100115999998,1833 Page St,San Francisco,CA,94117,,limited_access,,,Daily,"opening_hours = [""Sunday:13:00-17:00"",""Monday:12:00-18:00"",""Tuesday:10:00-20:00"",""Wednesday:12:00-20:00"",""Thursday:10:00-18:00"",""Friday:13:00-18:00"",""Saturday:10:00-18:00"",""Total Weekly Hours:49""]",library,POINT (-122.45100116 37.770135518),5,Haight Ashbury,2024/03/01 11:23:48 AM,2024/03/01 11:29:55 AM,25,7,11,3,
Joseph Lee Rec Center,4732333100158243303,restroom,0,0,0,0,37.73468676316928,-122.38948264747162,1395 Mendell St,San Francisco,CA,94124,Joseph Lee Rec Center,publicly_accessible,08:00:00,20:00:00,Daily,,rec,POINT (-122.389482647 37.734686763),10,Bayview Hunters Point,2024/03/01 11:23:48 AM,2024/03/01 11:29:55 AM,86,2,9,1,88
Richmond Branch Library,1970251667032378395,drinking_water,1,0,0,0,37.78184424500006,-122.46809920399994,351 09th Ave,San Francisco,CA,94118,10th Ave & Clement Mini Park,limited_access,,,Daily,"opening_hours = [""Sunday:13:00-17:00"",""Monday:13:00-18:00"",""Tuesday:10:00-20:00"",""Wednesday:10:00-20:00"",""Thursday:10:00-20:00"",""Friday:13:00-18:00"",""Saturday:10:00-18:00"",""Total Weekly Hours:52""]",library,POINT (-122.468099204 37.781844245),1,Inner Richmond,2024/03/01 11:23:48 AM,2024/03/01 11:29:55 AM,5,8,4,11,143
Yik Oi Huang Peace & Friendship Park Clubhouse,1677334419306752607,restroom,0,0,0,0,37.712744823556456,-122.40868229375427,251 Leland St,San Francisco,CA,94134,Visitacion Valley Playground,publicly_accessible,08:00:00,20:00:00,Daily,,rec,POINT (-122.408682294 37.712744824),10,Visitacion Valley,2024/03/01 11:23:48 AM,2024/03/01 11:29:55 AM,75,9,9,40,97
Potrero Hill Rec Center,5068999930283866876,restroom,0,0,0,0,37.7561194353484,-122.39699487131023,801 Arkansas St,San Francisco,CA,94107,Potrero Hill Rec Center,publicly_accessible,08:00:00,20:00:00,Daily,,rec,POINT (-122.396994871 37.756119435),10,Potrero Hill,2024/03/01 11:23:48 AM,2024/03/01 11:29:55 AM,54,2,9,26,64
Golden Gate Park - Section 1 - Waller Skate Drinking Fountain,222938728267057032,drinking_water,1,1,0,0,37.76828882,-122.45471819,Golden Gate Park,San Francisco,CA,94118,Golden Gate Park - Section 1,publicly_accessible,08:00:00,20:00:00,Daily,,rec,POINT (-122.454718189 37.768288825),5,Golden Gate Park,2024/03/01 11:23:48 AM,2024/03/01 11:29:55 AM,9,7,11,12,229
Golden Gate Park - Section 5 - Speedway Meadow Drinking Fountain,2769273602122445465,drinking_water,1,1,0,0,37.76948929,-122.48477771,Golden Gate Park,San Francisco,CA,94122,Golden Gate Park - Section 5,publicly_accessible,08:00:00,20:00:00,Daily,,rec,POINT (-122.484777711 37.76948929),4,Golden Gate Park,2024/03/01 11:23:48 AM,2024/03/01 11:29:55 AM,9,8,4,12,233
Golden Gate Park Mothers Meadow Bathroom,3641707246750174634,restroom,0,0,0,0,37.766384702476635,-122.47669708870976,M.L. King Dr/19th Ave,San Francisco,CA,94122,Golden Gate Park - Section 4,publicly_accessible,08:00:00,20:00:00,Daily,,rec,POINT (-122.476697089 37.766384702),7,Golden Gate Park,2024/03/01 11:23:48 AM,2024/03/01 11:29:55 AM,9,8,4,12,232
Golden Gate Park - Section 1 - Park aid station - drinking fountain,3194906194147016030,drinking_water,1,0,0,0,37.76699113,-122.45332948,811 Stanyan St,San Francisco,CA,94122,Golden Gate Park - Section 1,limited_access,08:00:00,20:00:00,Daily,,rec,POINT (-122.453329483 37.766991134),5,Golden Gate Park,2024/03/01 11:23:48 AM,2024/03/01 11:29:55 AM,9,7,11,12,229
Eureka Valley Rec Center,2332821162557756966,restroom,0,0,0,0,37.76025855923793,-122.43646113024141,100 Collingwood,San Francisco,CA,94114,Eureka Valley Rec Center,publicly_accessible,08:00:00,20:00:00,Daily,,rec,POINT (-122.43646113 37.760258559),8,Castro/Upper Market,2024/03/01 11:23:48 AM,2024/03/01 11:29:55 AM,38,3,5,5,208
Pier 39,3249569504867891889,restroom,0,0,0,0,37.7946633,-122.3914568,2 Pier 39,San Francisco,CA,94133,,publicly_accessible,07:00:00,22:00:00,Daily,Pier 39 public restroom,port,POINT (-122.3914568 37.7946633),,,2024/03/01 11:23:48 AM,2024/03/01 11:29:55 AM,,,,,
Potrero Hill Rec Center - Pathway DG Drinking Fountain,4399989278286244314,drinking_water,1,0,0,0,37.75609616,-122.39683774,801 Arkansas Street,San Francisco,CA,94107,Potrero Hill Rec Center,publicly_accessible,08:00:00,20:00:00,Daily,,rec,POINT (-122.396837744 37.756096155),10,Potrero Hill,2024/03/01 11:23:48 AM,2024/03/01 11:29:55 AM,54,2,9,26,64
Ocean Beach Pit Stop - Great Highway near Beach Chalet,8978516872808671611,restroom,0,0,0,0,37.767597,-122.51078,Great Highway near Beach Chalet,San Francisco,CA,,Lower Great Highway,publicly_accessible,,,,,pit_stop,POINT (-122.51078 37.767597),4,Golden Gate Park,2024/03/01 11:23:48 AM,2024/03/01 11:29:55 AM,9,8,4,12,20
Golden Gate Park Tennis & Pro Shop,8197108090095025584,restroom,0,0,0,0,37.77005238103576,-122.45956332478198,Stanyan & Great Hwy,San Francisco,CA,94122,Golden Gate Park - Section 7,publicly_accessible,08:00:00,20:00:00,Daily,,rec,POINT (-122.459563325 37.770052381),7,Golden Gate Park,2024/03/01 11:23:48 AM,2024/03/01 11:29:55 AM,9,7,11,12,228
Golden Gate Park Chalet Soccer Fields Restrooms,7568799149189004874,restroom,0,0,0,0,37.76726784014583,-122.50798559164443,John F. Kennedy Dr,San Francisco,CA,94122,Golden Gate Park - Section 6,publicly_accessible,08:00:00,20:00:00,Daily,,rec,POINT (-122.507985592 37.76726784),4,Golden Gate Park,2024/03/01 11:23:48 AM,2024/03/01 11:29:55 AM,9,8,4,12,234
Silver Terrace Clubhouse,502295565233411923,restroom,0,0,0,0,37.73251708717023,-122.40239900720432,Thornton & Bayshore,San Francisco,CA,94124,Silver Terrace Playground,publicly_accessible,08:00:00,20:00:00,Daily,,rec,POINT (-122.402399007 37.732517087),10,Bayview Hunters Point,2024/03/01 11:23:48 AM,2024/03/01 11:29:55 AM,87,2,9,1,111
Friend Rec Center,778841274529508642,restroom,0,0,0,0,37.77878684553274,-122.40633918368682,270 6th St,San Francisco,CA,94103,Eugene Friend Rec Center,publicly_accessible,08:00:00,20:00:00,Daily,,rec,POINT (-122.406339184 37.778786846),6,South of Market,2024/03/01 11:23:48 AM,2024/03/01 11:29:55 AM,32,1,10,34,166
Sandy Tatum Clubhouse,930715351180699620,restroom,0,0,0,0,37.72466408780731,-122.49365476428636,Lake Merced Blvd,San Francisco,CA,94132,Lake Merced Park,limited_access,08:00:00,20:00:00,Daily,,rec,POINT (-122.493654764 37.724664088),7,Lakeshore,2024/03/01 11:23:48 AM,2024/03/01 11:29:55 AM,43,10,8,16,2
Precita Park - Concrete Pathway Drinking Fountain,3359782773159488755,drinking_water,1,0,0,0,37.7468604,-122.41325643,3200 Folsom Street,San Francisco,CA,94110,Precita Park,publicly_accessible,08:00:00,20:00:00,Daily,,rec,POINT (-122.413256435 37.746860402),9,Bernal Heights,2024/03/01 11:23:48 AM,2024/03/01 11:29:55 AM,83,9,2,2,6
Corona Heights Park - Non-Landscaped Greenspace Dog Drinking Fountain,8807700169114814830,drinking_water,1,0,0,1,37.76530917,-122.44029272,Roosevelt & Museum Way,San Francisco,CA,94114,Corona Heights Park,publicly_accessible,08:00:00,20:00:00,Daily,,rec,POINT (-122.440292721 37.765309173),8,Castro/Upper Market,2024/03/01 11:23:48 AM,2024/03/01 11:29:55 AM,113,7,5,5,202
Mendell Plaza,1583894823483341905,drinking_water,0,1,1,0,37.734648,-122.390524,1425 Mendell St,San Francisco,CA,94124,,publicly_accessible,,,Daily,,puc,POINT (-122.390524 37.734648),10,Bayview Hunters Point,2024/03/01 11:23:48 AM,2024/03/01 11:29:55 AM,86,2,9,1,
Peixotto Clubhouse,3794976240319233035,restroom,0,0,0,0,37.76561026667449,-122.43757489790103,15th St & Roosevelt,San Francisco,CA,94114,Peixotto Playground,publicly_accessible,08:00:00,20:00:00,Daily,,rec,POINT (-122.437574898 37.765610267),8,Castro/Upper Market,2024/03/01 11:23:48 AM,2024/03/01 11:29:55 AM,113,7,5,5,128
Michelangelo Playground - Asphalt Pathway Drinking Fountain,1514631602998796104,drinking_water,1,0,0,0,37.80117848,-122.41699364,Greenwich & Jones,San Francisco,CA,94133,Michelangelo Playground,publicly_accessible,08:00:00,20:00:00,Daily,,rec,POINT (-122.416993642 37.801178476),3,Russian Hill,2024/03/01 11:23:48 AM,2024/03/01 11:29:55 AM,107,6,6,32,137
Grattan Playground - Multi-Use Paved Play Area Drinking Fountains,6206894350091592438,drinking_water,1,0,0,0,37.76261998,-122.4517025,1180 Stanyan St,San Francisco,CA,94117,Grattan Playground,publicly_accessible,08:00:00,20:00:00,Daily,,rec,POINT (-122.451702495 37.762619979),8,Haight Ashbury,2024/03/01 11:23:48 AM,2024/03/01 11:29:55 AM,114,7,11,3,172
SoMa Pit Stop - 6th and Natoma streets,6442859660123884493,restroom,0,0,0,0,37.78018,-122.40771,6th and Natoma streets,San Francisco,CA,,,publicly_accessible,,,,,pit_stop,POINT (-122.40771 37.78018),6,South of Market,2024/03/01 11:23:48 AM,2024/03/01 11:29:55 AM,32,1,10,34,
Mid-Market Pit Stop - U.N. Plaza (JCDecaux) Mid Market Pit Stop Daily,8685031922893760649,restroom,0,0,0,0,37.780144,-122.413086,U.N. Plaza (JCDecaux)   Mid Market Pit Stop Daily,San Francisco,CA,,,publicly_accessible,,,,,pit_stop,POINT (-122.413086 37.780144),5,Tenderloin,2024/03/01 11:23:48 AM,2024/03/01 11:29:55 AM,21,5,10,36,
McCoppin Square - Drinking Fountain 1,4135275012305788283,drinking_water,1,0,0,0,37.74336385,-122.48072332,24th Avenue & Taraval,San Francisco,CA,94116,McCoppin Square,publicly_accessible,08:00:00,20:00:00,Daily,,rec,POINT (-122.480723319 37.74336385),4,Sunset/Parkside,2024/03/01 11:23:48 AM,2024/03/01 11:29:55 AM,40,10,7,35,139
Merced Branch Library,7302849541184780251,drinking_water,1,0,0,0,37.72659366900007,-122.47449376899999,155 Winston Dr,San Francisco,CA,94132,,limited_access,,,Daily,"opening_hours = [""Sunday:13:00-17:00"",""Monday:10:00-18:00"",""Tuesday:10:00-20:00"",""Wednesday:12:00-20:00"",""Thursday:10:00-20:00"",""Friday:13:00-18:00"",""Saturday:10:00-18:00"",""Total Weekly Hours:53""]",library,POINT (-122.474493769 37.726593669),7,West of Twin Peaks,2024/03/01 11:23:48 AM,2024/03/01 11:29:55 AM,41,10,8,41,44
Balboa Park West Bathrooms,1769901743412994542,restroom,0,0,0,0,37.72515055872017,-122.44552972560477,Ocean & San Jose,San Francisco,CA,94112,Balboa Park,publicly_accessible,08:00:00,20:00:00,Daily,,rec,POINT (-122.445529726 37.725150559),11,Outer Mission,2024/03/01 11:23:48 AM,2024/03/01 11:29:55 AM,94,9,1,28,76
Herz Clubhouse,3974745258872349567,restroom,0,0,0,0,37.71394331637353,-122.416377893482,1700 Visitacion & Hahn Sts,San Francisco,CA,94134,Herz Playground,publicly_accessible,08:00:00,20:00:00,Daily,,rec,POINT (-122.416377893 37.713943316),10,McLaren Park,2024/03/01 11:23:48 AM,2024/03/01 11:29:55 AM,73,9,9,19,15
James Rolph Jr Clubhouse,8648877855879303740,restroom,0,0,0,0,37.75003212260691,-122.40660090421842,Potrero & Cesar Chavez St,San Francisco,CA,94110,James Rolph Jr. Playground,publicly_accessible,08:00:00,20:00:00,Daily,,rec,POINT (-122.406600904 37.750032123),9,Mission,2024/03/01 11:23:48 AM,2024/03/01 11:29:55 AM,53,3,2,20,226
McLaren Park Oxford St Restroom,5813049252582342808,restroom,0,0,0,0,37.72295232112115,-122.41856158704024,Mansell & Visitacion,San Francisco,CA,94134,John McLaren Park,publicly_accessible,08:00:00,20:00:00,Daily,,rec,POINT (-122.418561587 37.722952321),11,McLaren Park,2024/03/01 11:23:48 AM,2024/03/01 11:29:55 AM,73,9,2,19,7
Golden Gate Park - Section 6 - Lincoln Way Children's Play Area Drinking Fountain,9185695724137329096,drinking_water,1,1,0,0,37.76453532,-122.50499565,Lincoln Way/45th Ave,San Francisco,CA,94122,Golden Gate Park - Section 6,publicly_accessible,08:00:00,20:00:00,Daily,,rec,POINT (-122.504995646 37.764535322),4,Golden Gate Park,2024/03/01 11:23:48 AM,2024/03/01 11:29:55 AM,9,8,4,12,234
Golden Gate Park - Section 5 - Bottle Filling Station,4941410688179647636,drinking_water,1,1,0,0,37.77133057,-122.49904043,Golden Gate Park,San Francisco,CA,94122,Golden Gate Park - Section 5,publicly_accessible,08:00:00,20:00:00,Daily,,rec,POINT (-122.499040431 37.771330568),1,Golden Gate Park,2024/03/01 11:23:48 AM,2024/03/01 11:29:55 AM,9,8,4,12,233
Boeddeker Park Clubhouse,2534395336960747975,restroom,0,0,0,0,37.784313315464146,-122.41181377486572,295 Eddy St,San Francisco,CA,94102,Father Alfred E. Boeddeker Park,publicly_accessible,08:00:00,20:00:00,Daily,,rec,POINT (-122.411813775 37.784313315),5,Tenderloin,2024/03/01 11:23:48 AM,2024/03/01 11:29:55 AM,20,5,10,36,162
Golden Gate Park Horseshoe Pits Bathroom,1345444901404498198,restroom,0,0,0,0,37.77375259279182,-122.45599541704655,Stanyan & Great Hwy,San Francisco,CA,94122,Golden Gate Park - Section 1,publicly_accessible,08:00:00,20:00:00,Daily,,rec,POINT (-122.455995417 37.773752593),1,Golden Gate Park,2024/03/01 11:23:48 AM,2024/03/01 11:29:55 AM,9,7,4,12,229
Marina Green Bathrooms West,7071238898309551670,restroom,0,0,0,0,37.805673715617154,-122.44826247437689,Marina Blvd,San Francisco,CA,94123,Yacht Harbor and Marina Green,publicly_accessible,08:00:00,20:00:00,Daily,,rec,POINT (-122.448262474 37.805673716),2,Marina,2024/03/01 11:23:48 AM,2024/03/01 11:29:55 AM,17,4,6,13,90
Excelsior Branch Library,1134166097749066913,drinking_water,1,0,0,0,37.72713052100005,-122.43331540999998,4400 Mission St,San Francisco,CA,94112,,limited_access,,,Daily,"opening_hours = [""Sunday:13:00-17:00"",""Monday:13:00-18:00"",""Tuesday:10:00-20:00"",""Wednesday:10:00-20:00"",""Thursday:10:00-18:00"",""Friday:13:00-18:00"",""Saturday:10:00-18:00"",""Total Weekly Hours:50""]",library,POINT (-122.43331541 37.727130521),11,Outer Mission,2024/03/01 11:23:48 AM,2024/03/01 11:29:55 AM,94,9,1,28,
Noe Valley Courts Bathrooms,3699844018080909753,restroom,0,0,0,0,37.7514890509997,-122.43921687681694,24th & Douglass St,San Francisco,CA,94114,Noe Valley Courts,publicly_accessible,08:00:00,20:00:00,Daily,,rec,POINT (-122.439216877 37.751489051),8,Noe Valley,2024/03/01 11:23:48 AM,2024/03/01 11:29:55 AM,51,3,5,22,132
Betty Ann Ong Chinese Rec Center - Drinking Fountain/Hi-Low,891376843506715621,drinking_water,1,0,0,0,37.79437392,-122.41185105,1101 Washington Street,San Francisco,CA,94108,Betty Ann Ong Chinese Rec Center,publicly_accessible,08:00:00,20:00:00,Daily,,rec,POINT (-122.41185105 37.794373922),3,Nob Hill,2024/03/01 11:23:48 AM,2024/03/01 11:29:55 AM,16,6,3,21,155
Western Addition Branch Library,7958442617977442450,drinking_water,1,0,0,0,37.784118524000064,-122.43748930299995,1550 Scott St,San Francisco,CA,94115,,limited_access,,,Daily,"opening_hours = [""Sunday:13:00-17:00"",""Monday:10:00-18:00"",""Tuesday:10:00-18:00"",""Wednesday:13:00-20:00"",""Thursday:10:00-19:00"",""Friday:13:00-18:00"",""Saturday:10:00-18:00"",""Total Weekly Hours:49""]",library,POINT (-122.437489303 37.784118524),5,Japantown,2024/03/01 11:23:48 AM,2024/03/01 11:29:55 AM,103,4,11,15,36
Argonne: Clubhouse,1515965608021042744,restroom,0,0,0,0,37.77960155039642,-122.47777275709291,18th Ave  &  Geary Blvd,San Francisco,CA,94121,Argonne Playground,publicly_accessible,08:00:00,20:00:00,Daily,,rec,POINT (-122.477772757 37.77960155),1,Outer Richmond,2024/03/01 11:23:48 AM,2024/03/01 11:29:55 AM,5,8,4,29,71
North Beach Branch Library,7646533082011852694,drinking_water,1,0,0,0,37.80253081500007,-122.41313485899997,850 Columbus Ave,San Francisco,CA,94133,Joe DiMaggio Playground,limited_access,,,Daily,"opening_hours = [""Sunday:13:00-17:00"",""Monday:10:00-18:00"",""Tuesday:10:00-20:00"",""Wednesday:13:00-20:00"",""Thursday:10:00-18:00"",""Friday:13:00-18:00"",""Saturday:10:00-18:00"",""Total Weekly Hours:50""]",library,POINT (-122.413134859 37.802530815),3,North Beach,2024/03/01 11:23:48 AM,2024/03/01 11:29:55 AM,106,6,3,23,195
St Mary's PG Restrooms,2028357288166134714,restroom,0,0,0,0,37.73408562945021,-122.42143249299542,Murray & Justin Drive,San Francisco,CA,94110,St. Mary's Rec Center,publicly_accessible,08:00:00,20:00:00,Daily,,rec,POINT (-122.421432493 37.734085629),9,Bernal Heights,2024/03/01 11:23:48 AM,2024/03/01 11:29:55 AM,93,9,2,2,109
Golden Gate Park Chain of Lakes Bathroom,3540930831530257584,restroom,0,0,0,0,37.767975489778514,-122.50181865775265,Stanyan & Great Hwy,San Francisco,CA,94122,Golden Gate Park - Section 6,publicly_accessible,08:00:00,20:00:00,Daily,,rec,POINT (-122.501818658 37.76797549),1,Golden Gate Park,2024/03/01 11:23:48 AM,2024/03/01 11:29:55 AM,9,8,4,12,234
Douglass Restrooms,6739609299111966026,restroom,0,0,0,0,37.74628322060169,-122.43968176972001,26th & Douglass Street,San Francisco,CA,94131,Douglass Playground,publicly_accessible,08:00:00,20:00:00,Daily,,rec,POINT (-122.43968177 37.746283221),8,Noe Valley,2024/03/01 11:23:48 AM,2024/03/01 11:29:55 AM,57,3,5,22,206
Washington & Hyde Mini Park - Children's Play Area Drinking Fountain,6080330078335809374,drinking_water,1,0,0,0,37.79403244,-122.41743068,Washington & Hyde St,San Francisco,CA,94109,Washington & Hyde Mini Park,limited_access,08:00:00,20:00:00,Daily,,rec,POINT (-122.417430683 37.79403244),3,Russian Hill,2024/03/01 11:23:48 AM,2024/03/01 11:29:55 AM,16,6,3,32,95
Golden Gate Park - Section 5 - Model Yacht Drinking Fountain,3735074536311960993,drinking_water,1,0,0,0,37.77023241,-122.49551831,Stanyan & Great Hwy,San Francisco,CA,94122,Golden Gate Park - Section 5,publicly_accessible,08:00:00,20:00:00,Daily,,rec,POINT (-122.495518309 37.770232413),1,Golden Gate Park,2024/03/01 11:23:48 AM,2024/03/01 11:29:55 AM,9,8,4,12,233
Sunnyside Conservatory,3755932850212164196,restroom,0,0,0,0,37.73197548979175,-122.44079024361439,Monterey & Baden,San Francisco,CA,94131,Sunnyside Conservatory,publicly_accessible,08:00:00,20:00:00,Daily,,rec,POINT (-122.440790244 37.73197549),7,West of Twin Peaks,2024/03/01 11:23:48 AM,2024/03/01 11:29:55 AM,95,9,8,41,106
Oracle Park,4973141222634535716,restroom,1,0,0,0,37.7786944444444,-122.387638888888,"Giants Promenade, 24 Willie Mays Plaza",San Francisco,CA,94107,,publicly_accessible,,,Game Days,Outside Seal Plaza,port,POINT (-122.387638889 37.778694444),6,Mission Bay,2024/03/01 11:23:48 AM,2024/03/01 11:29:55 AM,31,1,10,4,
Midtown Terrace Clubhouse,2914129059992107756,restroom,0,0,0,0,37.751672658523525,-122.4558819020704,Clarendon & Olympia Way,San Francisco,CA,94131,Midtown Terrace Playground,publicly_accessible,08:00:00,20:00:00,Daily,,rec,POINT (-122.455881902 37.751672659),7,Twin Peaks,2024/03/01 11:23:48 AM,2024/03/01 11:29:55 AM,48,7,8,38,61
Glide,8783631804925644663,drinking_water,0,1,1,0,37.78512,-122.411443,302 Ellis St,San Francisco,CA,94102,,publicly_accessible,,,Daily,,puc,POINT (-122.411443 37.78512),5,Tenderloin,2024/03/01 11:23:48 AM,2024/03/01 11:29:55 AM,20,5,10,36,
Merced Heights Clubhouse,9220700351671859647,restroom,0,0,0,0,37.71773927466967,-122.47015597694786,Byxbee & Shields St,San Francisco,CA,94132,Merced Heights Playground,publicly_accessible,08:00:00,20:00:00,Daily,,rec,POINT (-122.470155977 37.717739275),11,Oceanview/Merced/Ingleside,2024/03/01 11:23:48 AM,2024/03/01 11:29:55 AM,65,10,1,24,138
Sunset Rec Center - Round Table and Seat 5,8551743488477761681,drinking_water,1,0,0,0,37.75684011,-122.48690401,2201 Lawton Street,San Francisco,CA,94122,Sunset Rec Center,publicly_accessible,08:00:00,20:00:00,Daily,,rec,POINT (-122.486904009 37.756840107),4,Sunset/Parkside,2024/03/01 11:23:48 AM,2024/03/01 11:29:55 AM,39,10,7,35,105
Michelangelo Gardeners Shed,4426667895717323973,restroom,0,0,0,0,37.80129138311905,-122.41678430816658,Greenwich & Jones,San Francisco,CA,94133,Michelangelo Playground,publicly_accessible,08:00:00,20:00:00,Daily,,rec,POINT (-122.416784308 37.801291383),3,Russian Hill,2024/03/01 11:23:48 AM,2024/03/01 11:29:55 AM,107,6,6,32,137
Presidio Heights Clubhouse,4289748452748884379,restroom,0,0,0,0,37.78848315227186,-122.44983022080389,Clay & Walnut St,San Francisco,CA,94118,Presidio Heights Playground,publicly_accessible,08:00:00,20:00:00,Daily,,rec,POINT (-122.449830221 37.788483152),2,Presidio Heights,2024/03/01 11:23:48 AM,2024/03/01 11:29:55 AM,10,8,6,31,125
Arriba Juntos,6602640275624901656,drinking_water,0,1,1,0,37.76735,-122.420036,1850 Mission St,San Francisco,CA,94103,,publicly_accessible,,,Daily,,puc,POINT (-122.420036 37.76735),9,Mission,2024/03/01 11:23:48 AM,2024/03/01 11:29:55 AM,53,3,2,20,
Community Youth Center,3575271813702956970,drinking_water,0,1,0,0,37.78702,-122.419028,1038 Post St,San Francisco,CA,94109,,publicly_accessible,,,Daily,,puc,POINT (-122.419028 37.78702),3,Nob Hill,2024/03/01 11:23:48 AM,2024/03/01 11:29:55 AM,50,4,3,21,
Midtown Terrace Playground - Asphalt Pathway Drinking Fountain,2937908265049260091,drinking_water,1,0,0,0,37.75167229,-122.45583378,Clarendon & Olympia Way,San Francisco,CA,94131,Midtown Terrace Playground,publicly_accessible,08:00:00,20:00:00,Daily,,rec,POINT (-122.455833783 37.751672288),7,Twin Peaks,2024/03/01 11:23:48 AM,2024/03/01 11:29:55 AM,48,7,8,38,61
Rochambeau Clubhouse,3542277325770407957,restroom,0,0,0,0,37.78501370766653,-122.48454452919034,24th Ave & Lake,San Francisco,CA,94121,Rochambeau Playground,publicly_accessible,08:00:00,20:00:00,Daily,,rec,POINT (-122.484544529 37.785013708),1,Outer Richmond,2024/03/01 11:23:48 AM,2024/03/01 11:29:55 AM,2,8,4,29,25
Lower Polk - Myrtle and Larkin streets (JCDecaux),7671891056194831451,restroom,0,0,0,0,37.785572,-122.41809,Myrtle and Larkin streets (JCDecaux),San Francisco,CA,,Sgt. John Macaulay Park,publicly_accessible,,,,,pit_stop,POINT (-122.41809 37.785572),5,Tenderloin,2024/03/01 11:23:48 AM,2024/03/01 11:29:55 AM,20,5,10,36,113
Noe Valley Courts - Perennial Bed Drinking Fountains,8967236345407971551,drinking_water,1,0,0,0,37.75145673,-122.43894594,24th Street & Douglass,San Francisco,CA,94114,Noe Valley Courts,publicly_accessible,08:00:00,20:00:00,Daily,,rec,POINT (-122.438945938 37.751456733),8,Noe Valley,2024/03/01 11:23:48 AM,2024/03/01 11:29:55 AM,51,3,5,22,132
Youngblood Colman Park,8953154863104910777,drinking_water,0,1,1,0,37.739575,-122.385795,615 Mendell St,San Francisco,CA,94124,Youngblood-Coleman Playground,publicly_accessible,,,Daily,,puc,POINT (-122.385795 37.739575),10,Bayview Hunters Point,2024/03/01 11:23:48 AM,2024/03/01 11:29:55 AM,86,2,9,1,
Yacht Harbor and Marina Green - Bench,3276676726064143324,restroom,0,0,0,0,37.80664933,-122.44254125,3950 Scott St,San Francisco,CA,94123,Yacht Harbor and Marina Green,limited_access,08:00:00,20:00:00,Daily,,rec,POINT (-122.442554463 37.806654329),,Marina,2024/03/01 11:23:48 AM,2024/03/01 11:29:55 AM,17,4,6,13,90
Mission Branch Library,1848497342151395742,drinking_water,1,0,0,0,37.75196896600005,-122.41982646399998,300 Bartlett St,San Francisco,CA,94110,,limited_access,,,Daily,"opening_hours = [""Sunday:13:00-17:00"",""Monday:10:00-18:00"",""Tuesday:10:00-20:00"",""Wednesday:10:00-20:00"",""Thursday:10:00-20:00"",""Friday:13:00-18:00"",""Saturday:10:00-18:00"",""Total Weekly Hours:55""]",library,POINT (-122.419826464 37.751968966),9,Mission,2024/03/01 11:23:48 AM,2024/03/01 11:29:55 AM,53,3,2,20,
Earl's Organic,8380650283006083838,drinking_water,0,1,1,0,37.744233,-122.398524,2102 Jerrold Ave,San Francisco,CA,94124,,publicly_accessible,,,Daily,,puc,POINT (-122.398524 37.744233),10,Bayview Hunters Point,2024/03/01 11:23:48 AM,2024/03/01 11:29:55 AM,85,2,9,1,
Margaret S.Hayward Playground - Concrete Pathway Drinking Fountain,5592613152927273918,drinking_water,1,0,0,0,37.78069454,-122.42684637,1016 Laguna Street,San Francisco,CA,94102,Margaret S.Hayward Playground,publicly_accessible,08:00:00,20:00:00,Daily,,rec,POINT (-122.426846374 37.78069454),5,Western Addition,2024/03/01 11:23:48 AM,2024/03/01 11:29:55 AM,100,4,11,39,140
Golden Gate Park Nursery Restrooms,5275881295470425080,restroom,0,0,0,0,37.76823046594387,-122.4621457200972,Stanyan & Great Hwy,San Francisco,CA,94122,Golden Gate Park - Section 7,publicly_accessible,08:00:00,20:00:00,Daily,,rec,POINT (-122.46214572 37.768230466),7,Golden Gate Park,2024/03/01 11:23:48 AM,2024/03/01 11:29:55 AM,9,8,11,12,228
Golden Gate Park - Section 6 - Bottle Filling Station 1,7604737679219360848,drinking_water,1,1,0,0,37.76718375,-122.5079935,John F. Kennedy Dr,San Francisco,CA,94122,Golden Gate Park - Section 6,publicly_accessible,08:00:00,20:00:00,Daily,,rec,POINT (-122.507993499 37.767183752),4,Golden Gate Park,2024/03/01 11:23:48 AM,2024/03/01 11:29:55 AM,9,8,4,12,234
Richmond Playground - Hardscape Drinking Fountain,659924745455998177,drinking_water,1,0,0,0,37.78521182,-122.47790053,18th Avenue & Lake,San Francisco,CA,94121,Richmond Playground,publicly_accessible,08:00:00,20:00:00,Daily,,rec,POINT (-122.477900525 37.785211819),1,Outer Richmond,2024/03/01 11:23:48 AM,2024/03/01 11:29:55 AM,2,8,4,29,122
Ocean View Branch Library,1426602887386233589,drinking_water,1,0,0,0,37.71413776700007,-122.46597082599999,345 Randolph St,San Francisco,CA,94132,,limited_access,,,Daily,"opening_hours = [""Sunday:13:00-17:00"",""Monday:10:00-18:00"",""Tuesday:10:00-18:00"",""Wednesday:12:00-20:00"",""Thursday:10:00-19:00"",""Friday:13:00-18:00"",""Saturday:10:00-18:00"",""Total Weekly Hours:50""]",library,POINT (-122.465970826 37.714137767),11,Oceanview/Merced/Ingleside,2024/03/01 11:23:48 AM,2024/03/01 11:29:55 AM,65,10,1,24,
Guy Place Mini Park - Drinking Fountain - Dog Bowl Only,6997067125765041237,drinking_water,1,0,0,0,37.78659459,-122.39431447,4 - 8 Guy Place,San Francisco,CA,94105,Guy Place Mini Park,publicly_accessible,08:00:00,20:00:00,Daily,,rec,POINT (-122.394314467 37.786594589),6,Financial District/South Beach,2024/03/01 11:23:48 AM,2024/03/01 11:29:55 AM,30,1,10,8,192
McCoppin Square Restrooms,468960480913195708,restroom,0,0,0,0,37.74353236064892,-122.480921289797,24th & Taraval,San Francisco,CA,94116,McCoppin Square,publicly_accessible,08:00:00,20:00:00,Daily,,rec,POINT (-122.48092129 37.743532361),4,Sunset/Parkside,2024/03/01 11:23:48 AM,2024/03/01 11:29:55 AM,40,10,7,35,139
Pier 70,2941591578252748830,restroom,0,0,0,0,37.7604953,-122.3842845,525 20th St,San Francisco,CA,94107,,limited_access,09:00:00,17:00:00,Daily,Inside building,port,POINT (-122.3842845 37.7604953),10,Potrero Hill,2024/03/01 11:23:48 AM,2024/03/01 11:29:55 AM,56,2,9,26,
Balboa Park East Bathrooms,4455528960831917212,restroom,0,0,0,0,37.72518013106688,-122.44422317546537,Ocean & San Jose,San Francisco,CA,94112,Balboa Park,publicly_accessible,08:00:00,20:00:00,Daily,,rec,POINT (-122.444223175 37.725180131),11,Outer Mission,2024/03/01 11:23:48 AM,2024/03/01 11:29:55 AM,94,9,1,28,76
Holly Park - Hardscaped Path Drinking Fountain,4391903695017534096,drinking_water,1,0,0,0,37.73711521,-122.42056083,Holly Park Circle,San Francisco,CA,94110,Holly Park,publicly_accessible,08:00:00,20:00:00,Daily,,rec,POINT (-122.420560827 37.737115206),9,Bernal Heights,2024/03/01 11:23:48 AM,2024/03/01 11:29:55 AM,61,9,2,2,47
Betty Ann Ong Chinese Rec Center - Drinking Fountain/Hi-Low,3741641609098064234,drinking_water,1,0,0,0,37.7942908,-122.41169429,1199 Mason St,San Francisco,CA,94108,Betty Ann Ong Chinese Rec Center,publicly_accessible,08:00:00,20:00:00,Daily,,rec,POINT (-122.411694294 37.794290801),3,Nob Hill,2024/03/01 11:23:48 AM,2024/03/01 11:29:55 AM,16,6,3,21,155
Golden Gate Park - Section 1 - Stanyan Edge Courtyard Drinking Fountain,8481660539152296963,drinking_water,1,0,0,0,37.76998542,-122.45421167,Golden Gate Park,San Francisco,CA,94117,Golden Gate Park - Section 1,publicly_accessible,08:00:00,20:00:00,Daily,,rec,POINT (-122.454211669 37.76998542),5,Golden Gate Park,2024/03/01 11:23:48 AM,2024/03/01 11:29:55 AM,9,7,11,12,229
Rossi Community Pool,5414478794514252376,restroom,0,0,0,0,37.77906477636416,-122.45837522576468,Arguello & Anza,San Francisco,CA,94118,Angelo J. Rossi Playground,publicly_accessible,08:00:00,20:00:00,Daily,,rec,POINT (-122.458375226 37.779064776),1,Lone Mountain/USF,2024/03/01 11:23:48 AM,2024/03/01 11:29:55 AM,12,8,4,18,204
Corona Heights Park - Non-Landscaped Greenspace Drinking Fountain,4701496554757293612,drinking_water,1,0,0,0,37.76530769,-122.44027742,Roosevelt & Museum Way,San Francisco,CA,94114,Corona Heights Park,publicly_accessible,08:00:00,20:00:00,Daily,,rec,POINT (-122.44027742 37.765307693),8,Castro/Upper Market,2024/03/01 11:23:48 AM,2024/03/01 11:29:55 AM,113,7,5,5,202
McKinley Square - Concrete Pathway Drinking Fountain,6112911176607512576,drinking_water,1,0,0,0,37.75910872,-122.40447578,20th Street & Vermont,San Francisco,CA,94107,McKinley Square,publicly_accessible,08:00:00,20:00:00,Daily,,rec,POINT (-122.404475785 37.759108722),10,Potrero Hill,2024/03/01 11:23:48 AM,2024/03/01 11:29:55 AM,54,2,9,26,60
Mission Creek Maintenance Bldg,4876547624839491143,restroom,0,0,0,0,37.771354930147126,-122.39873334868626,Berry St,San Francisco,CA,,Mission Creek Park,limited_access,08:00:00,20:00:00,Daily,,rec,POINT (-122.398733349 37.77135493),6,Mission Bay,2024/03/01 11:23:48 AM,2024/03/01 11:29:55 AM,34,1,10,4,
Golden Gate Park - Section 6 - Lincoln Ave Children's Play Area Drinking Fountain,6669630344975169879,drinking_water,1,1,0,0,37.76471573,-122.50482743,Lincoln Way/45th Ave,San Francisco,CA,94122,Golden Gate Park - Section 6,publicly_accessible,08:00:00,20:00:00,Daily,,rec,POINT (-122.504827428 37.76471573),4,Golden Gate Park,2024/03/01 11:23:48 AM,2024/03/01 11:29:55 AM,9,8,4,12,234
Golden Gate Park Bowling Green Clubhouse,908549467321146716,restroom,0,0,0,0,37.76854971779452,-122.45898101370997,Stanyan & Great Hwy,San Francisco,CA,94122,Golden Gate Park - Section 7,publicly_accessible,08:00:00,20:00:00,Daily,,rec,POINT (-122.458981014 37.768549718),7,Golden Gate Park,2024/03/01 11:23:48 AM,2024/03/01 11:29:55 AM,9,7,11,12,228
St. Mary's Square - Concrete Pathway Drinking Fountain,4343620898795423694,drinking_water,1,0,0,0,37.79172529,-122.40516295,California Street & Grant Street,San Francisco,CA,94108,St. Mary's Square,publicly_accessible,08:00:00,20:00:00,Daily,,rec,POINT (-122.40516295 37.791725291),3,Financial District/South Beach,2024/03/01 11:23:48 AM,2024/03/01 11:29:55 AM,104,6,3,8,108
Outer Sunset Pit Stop - Judah and La Playa streets (Rec Park),6773564667651549547,restroom,0,0,0,0,37.760307,-122.50916,Judah and La Playa streets (Rec Park),San Francisco,CA,,,publicly_accessible,,,,,pit_stop,POINT (-122.50916 37.760307),4,Sunset/Parkside,2024/03/01 11:23:48 AM,2024/03/01 11:29:55 AM,39,10,7,35,
Sunnyside Clubhouse,1485550331730371135,restroom,0,0,0,0,37.73377720011088,-122.44773859229277,Teresita Ave & Melrose,San Francisco,CA,94127,Sunnyside Playground,publicly_accessible,08:00:00,20:00:00,Daily,,rec,POINT (-122.447738592 37.7337772),7,West of Twin Peaks,2024/03/01 11:23:48 AM,2024/03/01 11:29:55 AM,95,9,8,41,222
John McLaren Park - Tennis Drinking Fountain,4521509284292366263,drinking_water,1,0,0,0,37.71923962,-122.4128329,Mansell & Visitacion,San Francisco,CA,94134,John McLaren Park,publicly_accessible,08:00:00,20:00:00,Daily,,rec,POINT (-122.412832901 37.71923962),9,McLaren Park,2024/03/01 11:23:48 AM,2024/03/01 11:29:55 AM,73,9,2,19,7
Sunnyside Conservatory - Drinking Fountain/Hi-Low,2407773465783629270,drinking_water,1,0,0,0,37.73193823,-122.44074054,Monterey & Baden,San Francisco,CA,94131,Sunnyside Conservatory,publicly_accessible,08:00:00,20:00:00,Daily,,rec,POINT (-122.440740544 37.731938228),7,West of Twin Peaks,2024/03/01 11:23:48 AM,2024/03/01 11:29:55 AM,95,9,8,41,106
West Portal Branch Library,6503267742886675671,drinking_water,1,0,0,0,37.74137018500005,-122.46614395199998,190 Lenox Way,San Francisco,CA,94127,,limited_access,,,Daily,"opening_hours = [""Sunday:13:00-17:00"",""Monday:13:00-18:00"",""Tuesday:10:00-20:00"",""Wednesday:10:00-20:00"",""Thursday:10:00-20:00"",""Friday:13:00-18:00"",""Saturday:10:00-18:00"",""Total Weekly Hours:52""]",library,POINT (-122.466143952 37.741370185),7,West of Twin Peaks,2024/03/01 11:23:48 AM,2024/03/01 11:29:55 AM,46,10,8,41,
Palace of Fine Arts - exposition space,7457050249968893519,restroom,0,0,0,0,37.80215891867168,-122.4487933089928,3601 Lyon St & Marina Blvd,San Francisco,CA,94123,Palace of Fine Arts,publicly_accessible,08:00:00,20:00:00,Daily,,rec,POINT (-122.448793309 37.802158919),2,Marina,2024/03/01 11:23:48 AM,2024/03/01 11:29:55 AM,17,4,6,13,21
Tenderloin Recreation Center - Multi-Use Paved Play Areas Drinking Fountain,4442533051796043157,drinking_water,1,0,0,0,37.78479959,-122.41547704,570 Ellis Street,San Francisco,CA,94109,Tenderloin Recreation Center,publicly_accessible,08:00:00,20:00:00,Daily,,rec,POINT (-122.415477043 37.784799593),5,Tenderloin,2024/03/01 11:23:48 AM,2024/03/01 11:29:55 AM,20,5,10,36,103
Golden Gate Park - Section 6 - Bottle Filling Station 2,1750843847428211272,drinking_water,1,1,0,0,37.76735535,-122.50800821,John F. Kennedy Dr,San Francisco,CA,94122,Golden Gate Park - Section 6,publicly_accessible,08:00:00,20:00:00,Daily,,rec,POINT (-122.508008212 37.767355354),4,Golden Gate Park,2024/03/01 11:23:48 AM,2024/03/01 11:29:55 AM,9,8,4,12,234
Alta Plaza Park - Asphalt Pathway Drinking Fountain,1318910653473647882,drinking_water,1,0,0,0,37.79118298,-122.43717434,Jackson & Steiner,San Francisco,CA,94115,Alta Plaza Park,publicly_accessible,08:00:00,20:00:00,Daily,,rec,POINT (-122.437174343 37.791182983),2,Pacific Heights,2024/03/01 11:23:48 AM,2024/03/01 11:29:55 AM,102,4,6,30,149
Raymond Kimball Playground - Asphalt Pathway Drinking Fountain,8178807865338592971,drinking_water,1,1,0,0,37.78248803,-122.4355881,Geary Boulevard & Steiner Street,San Francisco,CA,94115,Raymond Kimball Playground,publicly_accessible,08:00:00,20:00:00,Daily,,rec,POINT (-122.435588101 37.782488028),5,Western Addition,2024/03/01 11:23:48 AM,2024/03/01 11:29:55 AM,97,4,11,39,123
North Beach Pit Stop - Washington Square at Union St. (JCDecaux),5044111039446243996,restroom,0,0,0,0,37.80047,-122.40973,Washington Square at Union St. (JCDecaux),San Francisco,CA,,Washington Square,publicly_accessible,,,,,pit_stop,POINT (-122.40973 37.80047),3,North Beach,2024/03/01 11:23:48 AM,2024/03/01 11:29:55 AM,106,6,3,23,94
Palega Playground - Men's Restroom Hi-low Drinking Fountain,3277339732635776208,drinking_water,1,0,0,0,37.72928418,-122.40970258,500 Felton,San Francisco,CA,94134,Palega Playground,publicly_accessible,08:00:00,20:00:00,Daily,,rec,POINT (-122.409702575 37.729284176),9,Portola,2024/03/01 11:23:48 AM,2024/03/01 11:29:55 AM,91,2,2,25,130
Moscone Rec Center - Children's Play Area-1 Drinking Fountain,4046800772810367646,drinking_water,1,1,0,0,37.80159655,-122.43345577,1800 Chestnut Street,San Francisco,CA,94123,Moscone Rec Center,publicly_accessible,08:00:00,20:00:00,Daily,,rec,POINT (-122.433455765 37.801596551),2,Marina,2024/03/01 11:23:48 AM,2024/03/01 11:29:55 AM,17,4,6,13,135
West Sunset Playground - Drinking Fountain 1,3742153860980092126,drinking_water,1,0,0,0,37.7508196,-122.49832208,3223 Ortega Street & 39th Avenue,San Francisco,CA,94116,West Sunset Playground,publicly_accessible,08:00:00,20:00:00,Daily,,rec,POINT (-122.498322079 37.750819597),4,Sunset/Parkside,2024/03/01 11:23:48 AM,2024/03/01 11:29:55 AM,39,10,7,35,93
Embarcadero Pit Stop - Embarcadero Plaza (JCDecaux),7227832692528728198,restroom,0,0,0,0,37.79463,-122.3946,Embarcadero Plaza (JCDecaux),San Francisco,CA,,Embarcadero Plaza,publicly_accessible,,,,,pit_stop,POINT (-122.3946 37.79463),3,Financial District/South Beach,2024/03/01 11:23:48 AM,2024/03/01 11:29:55 AM,108,6,3,8,58
Chinatown Branch Library,1048105456630639138,drinking_water,1,0,0,0,37.79523887500005,-122.41008249499998,1135 Powell St,San Francisco,CA,94108,,limited_access,,,Daily,"opening_hours = [""Sunday:13:00-17:00"",""Monday:13:00-18:00"",""Tuesday:10:00-20:00"",""Wednesday:10:00-20:00"",""Thursday:10:00-20:00"",""Friday:13:00-18:00"",""Saturday:10:00-18:00"",""Total Weekly Hours:52""]",library,POINT (-122.410082495 37.795238875),3,Chinatown,2024/03/01 11:23:48 AM,2024/03/01 11:29:55 AM,16,6,3,6,
Lake Merced Park - DG Pathway Drinking Fountain,7285765687818283401,drinking_water,1,0,0,0,37.71236851,-122.48930581,Lake Merced Boulevard,San Francisco,CA,94132,Lake Merced Park,publicly_accessible,08:00:00,20:00:00,Daily,,rec,POINT (-122.489305812 37.712368507),7,Lakeshore,2024/03/01 11:23:48 AM,2024/03/01 11:29:55 AM,43,10,8,16,2
Palega Playground - BBC Hi-low Drinking Fountain,1774281230631758332,drinking_water,1,0,0,0,37.72905279,-122.41024196,500 Felton,San Francisco,CA,94134,Palega Playground,publicly_accessible,08:00:00,20:00:00,Daily,,rec,POINT (-122.410241957 37.729052789),9,Portola,2024/03/01 11:23:48 AM,2024/03/01 11:29:55 AM,91,2,2,25,130
Lake Merced Park - Asphalt Pathway Drinking Fountain,8064824229054730782,drinking_water,1,1,0,0,37.72594388,-122.49985018,Lake Merced Boulevard,San Francisco,CA,94132,Lake Merced Park,publicly_accessible,08:00:00,20:00:00,Daily,,rec,POINT (-122.499850185 37.725943881),7,Lakeshore,2024/03/01 11:23:48 AM,2024/03/01 11:29:55 AM,43,10,8,16,2
Mission Pit Stop - 24th and Mission (JCDecaux),428360424932887128,restroom,0,0,0,0,37.752174,-122.41858,24th and Mission (JCDecaux),San Francisco,CA,,,publicly_accessible,,,,,pit_stop,POINT (-122.41858 37.752174),9,Mission,2024/03/01 11:23:48 AM,2024/03/01 11:29:55 AM,53,3,2,20,
Palace of Fine Arts - Concrete Pathway Drinking Fountain,6561470336197581923,drinking_water,1,0,0,0,37.80168735,-122.44791247,3601 Lyon Street & Marina Blvd,San Francisco,CA,94123,Palace of Fine Arts,publicly_accessible,08:00:00,20:00:00,Daily,,rec,POINT (-122.447912466 37.801687354),2,Marina,2024/03/01 11:23:48 AM,2024/03/01 11:29:55 AM,17,4,6,13,21
Youngblood-Coleman Playground - Synthetic Field Soccer/Football Drinking Fountain,3155396240131750611,drinking_water,1,0,0,0,37.73918599,-122.38562641,Mendell & Galvez,San Francisco,CA,94124,Youngblood-Coleman Playground,publicly_accessible,08:00:00,20:00:00,Daily,,rec,POINT (-122.385626414 37.73918599),10,Bayview Hunters Point,2024/03/01 11:23:48 AM,2024/03/01 11:29:55 AM,86,2,9,1,224
Mission Playground - Pool Area Drinking Fountain,8718741773238029634,drinking_water,1,0,0,0,37.75959502,-122.42274036,19th & Linda,San Francisco,CA,94110,Mission Playground,publicly_accessible,08:00:00,20:00:00,Daily,,rec,POINT (-122.422740363 37.759595022),9,Mission,2024/03/01 11:23:48 AM,2024/03/01 11:29:55 AM,37,3,5,20,214
Mission Pit Stop - SFGH Building 80/90 COVID 19 Pit Stop,175034497487408157,restroom,0,0,0,0,37.75712,-122.40569,SFGH Building 80/90 COVID 19 Pit Stop,San Francisco,CA,,,publicly_accessible,,,,,pit_stop,POINT (-122.40569 37.75712),10,Mission,2024/03/01 11:23:48 AM,2024/03/01 11:29:55 AM,54,3,9,20,
Golden Gate Park Panhandle Fitness Area,733999806357189125,restroom,0,0,0,0,37.7723648429254,-122.44768725676089,,San Francisco,CA,,Golden Gate Park - Section 1,publicly_accessible,08:00:00,20:00:00,Daily,,rec,POINT (-122.447687257 37.772364843),5,Golden Gate Park,2024/03/01 11:23:48 AM,2024/03/01 11:29:55 AM,24,7,11,12,229
Alice Chalmers Playground - Tennis Court Drinking Fountain,8059101127650084766,drinking_water,1,0,0,0,37.70975592,-122.44678565,670 Brunswick & Lowell Roemer,San Francisco,CA,94112,Alice Chalmers Playground,publicly_accessible,08:00:00,20:00:00,Daily,,rec,POINT (-122.446785654 37.709755918),11,Excelsior,2024/03/01 11:23:48 AM,2024/03/01 11:29:55 AM,58,9,1,7,68
Matthew Boxer Stadium,8899937437357167847,restroom,0,0,0,0,37.726176218218214,-122.44515610145109,Ocean & San Jose,San Francisco,CA,94112,Balboa Park,publicly_accessible,08:00:00,20:00:00,Daily,,rec,POINT (-122.445156101 37.726176218),11,Outer Mission,2024/03/01 11:23:48 AM,2024/03/01 11:29:55 AM,94,9,1,28,76
Walter Haas Playground - Drinking Fountain/Cooler,7979184012007724705,drinking_water,1,1,0,0,37.74064005,-122.43528428,Addison & Farnum,San Francisco,CA,94131,Walter Haas Playground,publicly_accessible,08:00:00,20:00:00,Daily,,rec,POINT (-122.435284285 37.740640052),8,Glen Park,2024/03/01 11:23:48 AM,2024/03/01 11:29:55 AM,59,9,5,10,96
Palega Playground - Women's Restroom Hi-low Drinking Fountain,6656289903602803638,drinking_water,1,0,0,0,37.72925373,-122.40981944,500 Felton,San Francisco,CA,94134,Palega Playground,publicly_accessible,08:00:00,20:00:00,Daily,,rec,POINT (-122.409819442 37.729253728),9,Portola,2024/03/01 11:23:48 AM,2024/03/01 11:29:55 AM,91,2,2,25,130
Merced Heights Playground - Hardscaped Area Drinking Fountain,381747663397426124,drinking_water,1,0,0,0,37.71767021,-122.47010351,Byxbee & Shields Streets,San Francisco,CA,94132,Merced Heights Playground,publicly_accessible,08:00:00,20:00:00,Daily,,rec,POINT (-122.470103506 37.717670212),11,Oceanview/Merced/Ingleside,2024/03/01 11:23:48 AM,2024/03/01 11:29:55 AM,65,10,1,24,138
Mountain Lake Park - Asphalt Pathway Drinking Fountain,991010497475600179,drinking_water,1,0,0,0,37.78749349,-122.4684184,1 Eleventh Avenue,San Francisco,CA,94118,Mountain Lake Park,publicly_accessible,08:00:00,20:00:00,Daily,,rec,POINT (-122.468418395 37.787493491),1,Inner Richmond,2024/03/01 11:23:48 AM,2024/03/01 11:29:55 AM,4,,6,11,134
3rd and Clement,2353041988599802789,drinking_water,0,1,0,0,37.783196,-122.461368,208 Clement,San Francisco,CA,94118,,publicly_accessible,,,Daily,,puc,POINT (-122.461368 37.783196),1,Inner Richmond,2024/03/01 11:23:48 AM,2024/03/01 11:29:55 AM,5,8,4,11,
George Christopher Playground - Perennial Bed Drinking Fountains,2064275837056750254,drinking_water,1,0,0,0,37.74424925,-122.44036075,5210 Diamond Heights Boulevard,San Francisco,CA,94131,George Christopher Playground,publicly_accessible,08:00:00,20:00:00,Daily,,rec,POINT (-122.440360748 37.744249255),8,Glen Park,2024/03/01 11:23:48 AM,2024/03/01 11:29:55 AM,57,9,5,10,168
Cayuga Clubhouse,3958142903091328013,restroom,0,0,0,0,37.71434070008616,-122.44983895996566,Cayuga & Naglee St,San Francisco,CA,94112,Cayuga Playground,publicly_accessible,08:00:00,20:00:00,Daily,,rec,POINT (-122.44983896 37.7143407),11,Outer Mission,2024/03/01 11:23:48 AM,2024/03/01 11:29:55 AM,66,9,1,28,205
Golden Gate Park Arboretum South Restrooms,8725389756873139958,restroom,0,0,0,0,37.76682600903738,-122.46836576369371,Stanyan & Great Hwy,San Francisco,CA,94122,Golden Gate Park - Section 3,publicly_accessible,08:00:00,20:00:00,Daily,,rec,POINT (-122.468365764 37.766826009),7,Golden Gate Park,2024/03/01 11:23:48 AM,2024/03/01 11:29:55 AM,9,8,11,12,231
Golden Gate Park Boat Children's Play Area Restroom,4477704728310835559,restroom,0,0,0,0,37.76448018066263,-122.5049582751338,John F. Kennedy Dr,San Francisco,CA,94122,Golden Gate Park - Section 6,publicly_accessible,08:00:00,20:00:00,Daily,,rec,POINT (-122.504958275 37.764480181),4,Golden Gate Park,2024/03/01 11:23:48 AM,2024/03/01 11:29:55 AM,9,8,4,12,234
Portsmouth Square - Concrete Pathway Drinking Fountain,6143657832185085138,drinking_water,1,0,0,0,37.79460917,-122.40557791,Washington & Walter Lum Place,San Francisco,CA,94108,Portsmouth Square,publicly_accessible,08:00:00,20:00:00,Daily,,rec,POINT (-122.405577909 37.794609168),3,Chinatown,2024/03/01 11:23:48 AM,2024/03/01 11:29:55 AM,104,6,3,6,127
St Mary's Square Bathrooms,7471311198826182443,restroom,0,0,0,0,37.79171980102433,-122.4050921094781,California St & Grant St,San Francisco,CA,94108,St. Mary's Square,publicly_accessible,08:00:00,20:00:00,Daily,,rec,POINT (-122.405092109 37.791719801),3,Financial District/South Beach,2024/03/01 11:23:48 AM,2024/03/01 11:29:55 AM,104,6,3,8,108
Portola Library,7171405751874216522,drinking_water,1,0,0,0,37.727114209000035,-122.40636172399996,380 Bacon St,San Francisco,CA,94112,,limited_access,,,Daily,"opening_hours = [""Sunday:13:00-17:00"",""Monday:10:00-18:00"",""Tuesday:10:00-18:00"",""Wednesday:12:00-20:00"",""Thursday:10:00-19:00"",""Friday:13:00-18:00"",""Saturday:10:00-18:00"",""Total Weekly Hours:50""]",library,POINT (-122.406361724 37.727114209),9,Portola,2024/03/01 11:23:48 AM,2024/03/01 11:29:55 AM,91,2,2,25,
Fulton Playground - Hi-Lo Drinking Fountain,8235866395746994918,drinking_water,1,0,0,0,37.77352788,-122.48698761,27th Ave & Fulton St,San Francisco,CA,94121,Fulton Playground,publicly_accessible,08:00:00,20:00:00,Daily,,rec,POINT (-122.486987609 37.773527875),1,Outer Richmond,2024/03/01 11:23:48 AM,2024/03/01 11:29:55 AM,8,8,4,29,210
Haight Pit Stop - Buena Vista Avenue East & Haight Street,6328566929400096264,restroom,0,0,0,0,37.77085,-122.440384,Buena Vista Avenue East & Haight Street,San Francisco,CA,,,publicly_accessible,,,,,pit_stop,POINT (-122.440384 37.77085),5,Haight Ashbury,2024/03/01 11:23:48 AM,2024/03/01 11:29:55 AM,112,7,11,3,
Jerry Garcia Amphitheatre Restroom,4378564667613058963,restroom,0,0,0,0,37.72085225698024,-122.41693628337049,Mansell & Visitacion,San Francisco,CA,94134,John McLaren Park,publicly_accessible,08:00:00,20:00:00,Daily,,rec,POINT (-122.416936283 37.720852257),9,McLaren Park,2024/03/01 11:23:48 AM,2024/03/01 11:29:55 AM,73,9,2,19,7
Bay View Restrooms,6307800013540237823,restroom,0,0,0,0,37.725561458129235,-122.39303328488165,3rd & Armstrong,San Francisco,CA,94124,Bayview K.C. Jones Playground,publicly_accessible,08:00:00,20:00:00,Daily,,rec,POINT (-122.393033285 37.725561458),10,Bayview Hunters Point,2024/03/01 11:23:48 AM,2024/03/01 11:29:55 AM,86,2,9,1,77
Golden Gate Park - Section 6 - Drinking Fountain/Cooler,2279428380184152431,drinking_water,1,1,0,0,37.76571756,-122.50070094,Golden Gate Park,San Francisco,CA,94122,Golden Gate Park - Section 6,publicly_accessible,08:00:00,20:00:00,Daily,,rec,POINT (-122.500700939 37.765717556),4,Golden Gate Park,2024/03/01 11:23:48 AM,2024/03/01 11:29:55 AM,9,8,4,12,234
Marina Green Bathrooms East,6233768905277028649,restroom,0,0,0,0,37.80646812688551,-122.43452512949226,Marina Blvd,San Francisco,CA,94123,Yacht Harbor and Marina Green,publicly_accessible,08:00:00,20:00:00,Daily,,rec,POINT (-122.434525129 37.806468127),2,Marina,2024/03/01 11:23:48 AM,2024/03/01 11:29:55 AM,17,4,6,13,90
P24 park at Illinois and Terry Franciois Blvd,1870571608196722104,drinking_water,1,1,0,1,37.76515,-122.38791,568 Illinois Street,San Francisco,CA,94158,,publicly_accessible,,,Daily,Near picnic benches,port,POINT (-122.38791 37.76515),6,Mission Bay,2024/03/01 11:23:48 AM,2024/03/01 11:29:55 AM,34,1,10,4,
Heron's Head Eco Center,8218204447177500715,restroom,0,0,0,0,37.73973959388833,-122.37539271263064,,San Francisco,CA,94124,Heron's Head Park,publicly_accessible,08:00:00,20:00:00,Daily,,rec,POINT (-122.375392713 37.739739594),10,Bayview Hunters Point,2024/03/01 11:23:48 AM,2024/03/01 11:29:55 AM,56,2,9,1,238
Main Library,1845349341306362846,drinking_water,1,0,0,0,37.779081776000055,-122.41615205,100 Larkin St,San Francisco,CA,94102,,limited_access,,,Daily,"opening_hours = [""Sunday:12:00-18:00"",""Monday:09:00-18:00"",""Tuesday:09:00-20:00"",""Wednesday:09:00-20:00"",""Thursday:09:00-20:00"",""Friday:12:00-18:00"",""Saturday:10:00-18:00"",""Total Weekly Hours:62""]",library,POINT (-122.41615205 37.779081776),5,Tenderloin,2024/03/01 11:23:48 AM,2024/03/01 11:29:55 AM,21,5,10,36,
Harvey Milk Recreational Arts Bldg,3179317602354845196,restroom,0,0,0,0,37.76957923726337,-122.43457746874921,50 Scott St,San Francisco,CA,94117,Duboce Park,publicly_accessible,08:00:00,20:00:00,Daily,,rec,POINT (-122.434577469 37.769579237),8,Haight Ashbury,2024/03/01 11:23:48 AM,2024/03/01 11:29:55 AM,28,7,5,3,159
Golden Gate Park - Section 6 - North Lake Drinking Fountain,3339634967175904363,drinking_water,1,0,0,0,37.76792759,-122.50184765,Golden Gate Park,San Francisco,CA,94122,Golden Gate Park - Section 6,publicly_accessible,08:00:00,20:00:00,Daily,,rec,POINT (-122.50184765 37.767927592),1,Golden Gate Park,2024/03/01 11:23:48 AM,2024/03/01 11:29:55 AM,9,8,4,12,234
Margaret S.Hayward Playground - Concrete Pathway Drinking Fountain,4796347156258407552,drinking_water,1,0,0,0,37.78087932,-122.42537904,1016 Laguna Street,San Francisco,CA,94102,Margaret S.Hayward Playground,publicly_accessible,08:00:00,20:00:00,Daily,,rec,POINT (-122.425379041 37.780879325),5,Western Addition,2024/03/01 11:23:48 AM,2024/03/01 11:29:55 AM,100,4,11,39,140
Glen Silver Tree Clubhouse,7299141279747414876,restroom,0,0,0,0,37.74066815959017,-122.44236800733445,Diamond & Farnum St,San Francisco,CA,94131,Glen Canyon Park,publicly_accessible,08:00:00,20:00:00,Daily,,rec,POINT (-122.442368007 37.74066816),8,Glen Park,2024/03/01 11:23:48 AM,2024/03/01 11:29:55 AM,96,9,5,10,239
Ortega Branch Library,1845787657090241694,drinking_water,1,0,0,0,37.75122405800005,-122.49810319699998,3223 Ortega St,San Francisco,CA,94122,West Sunset Playground,limited_access,,,Daily,"opening_hours = [""Sunday:13:00-17:00"",""Monday:10:00-18:00"",""Tuesday:10:00-18:00"",""Wednesday:12:00-20:00"",""Thursday:11:00-20:00"",""Friday:13:00-18:00"",""Saturday:10:00-18:00"",""Total Weekly Hours:50""]",library,POINT (-122.498103197 37.751224058),4,Sunset/Parkside,2024/03/01 11:23:48 AM,2024/03/01 11:29:55 AM,39,10,7,35,93
Tenderloin Pit Stop - 388 Ellis St. Tenderloin Pit Stop Daily,7586582180154968615,restroom,0,0,0,0,37.7851,-122.41255,388 Ellis St.   Tenderloin Pit Stop Daily,San Francisco,CA,,,publicly_accessible,,,,,pit_stop,POINT (-122.41255 37.7851),5,Tenderloin,2024/03/01 11:23:48 AM,2024/03/01 11:29:55 AM,20,5,10,36,
Victoria Manalo Draves Park - VMD Concrete Path Drinking Fountain,4619800523254892205,drinking_water,1,0,0,0,37.77712697,-122.40618904,Folsom & Sherman Streets,San Francisco,CA,94103,Victoria Manalo Draves Park,limited_access,08:00:00,20:00:00,Daily,,rec,POINT (-122.406189045 37.777126965),6,South of Market,2024/03/01 11:23:48 AM,2024/03/01 11:29:55 AM,32,1,10,34,98
Crocker Amazon Playground - Drinking Fountain/Cooler,8984256812290899820,drinking_water,1,1,0,0,37.71272264,-122.42731925,Moscow & Geneva Streets,San Francisco,CA,94134,Crocker Amazon Playground,publicly_accessible,08:00:00,20:00:00,Daily,,rec,POINT (-122.427319247 37.712722638),11,Excelsior,2024/03/01 11:23:48 AM,2024/03/01 11:29:55 AM,58,9,1,7,158
Mission Dolores Park - Turf Dog Drinking Fountain,1995766614794376806,drinking_water,1,0,0,1,37.75945603,-122.42710373,19th & Dolores Streets,San Francisco,CA,94114,Mission Dolores Park,publicly_accessible,08:00:00,20:00:00,Daily,,rec,POINT (-122.427103727 37.759456031),8,Castro/Upper Market,2024/03/01 11:23:48 AM,2024/03/01 11:29:55 AM,37,3,5,5,213
Minnie & Lovie Ward Rec Center,7200183235575193233,restroom,0,0,0,0,37.71630766060712,-122.45746131724519,650 Capitol Ave,San Francisco,CA,94112,Minnie and Lovie Rec Center,publicly_accessible,08:00:00,20:00:00,Daily,,rec,POINT (-122.457461317 37.716307661),11,Oceanview/Merced/Ingleside,2024/03/01 11:23:48 AM,2024/03/01 11:29:55 AM,81,10,1,24,89
Alamo Square - Asphalt Pathway Drinking Fountain,6727842048750038820,drinking_water,1,1,0,0,37.77637348,-122.43370758,Hayes & Steiner,San Francisco,CA,94117,Alamo Square,publicly_accessible,08:00:00,20:00:00,Daily,,rec,POINT (-122.434618252 37.77571844),5,Hayes Valley,2024/03/01 11:23:48 AM,2024/03/01 11:29:55 AM,23,4,11,9,67
Golden Gate Park - Section 1 - Kezar Stadium Drinking Fountain,4392753797345163005,drinking_water,1,0,0,0,37.7662457,-122.45578886,755 Stanyan,San Francisco,CA,94122,Golden Gate Park - Section 1,publicly_accessible,08:00:00,20:00:00,Daily,,rec,POINT (-122.455788857 37.766245704),5,Golden Gate Park,2024/03/01 11:23:48 AM,2024/03/01 11:29:55 AM,9,7,11,12,229
Golden Gate Park - Section 1 - Camellia Garden Meadow Drinking Fountain,197241493068537799,drinking_water,1,0,0,0,37.77273826,-122.45794473,Stanyan & Great Hwy,San Francisco,CA,94122,Golden Gate Park - Section 1,publicly_accessible,08:00:00,20:00:00,Daily,,rec,POINT (-122.457944731 37.772738257),1,Golden Gate Park,2024/03/01 11:23:48 AM,2024/03/01 11:29:55 AM,9,7,4,12,229
Cabrillo Clubhouse,5261161722080981663,restroom,0,0,0,0,37.77310559028265,-122.49848816159255,38th Ave  &  Cabrillo,San Francisco,CA,94121,Cabrillo Playground,publicly_accessible,08:00:00,20:00:00,Daily,,rec,POINT (-122.498488162 37.77310559),1,Outer Richmond,2024/03/01 11:23:48 AM,2024/03/01 11:29:55 AM,8,8,4,29,81
Golden Gate Park - Section 5 - Spreckels Lake Drinking Fountain,7818576091361238925,drinking_water,1,0,0,0,37.77163402,-122.49513619,Golden Gate Park,San Francisco,CA,94122,Golden Gate Park - Section 5,publicly_accessible,08:00:00,20:00:00,Daily,,rec,POINT (-122.495136191 37.771634022),1,Golden Gate Park,2024/03/01 11:23:48 AM,2024/03/01 11:29:55 AM,9,8,4,12,233
Southeast Community Center Restroom,2641768654156405405,restroom,0,0,0,0,37.7428,-122.387319,1550 Evans Ave,San Francisco,CA,94124,,limited_access,07:00:00,19:00:00,Weekdays,,puc,POINT (-122.387319 37.7428),10,Bayview Hunters Point,2024/03/01 11:23:48 AM,2024/03/01 11:29:55 AM,76,2,9,1,
Sunset Rec Center,5857790688088800410,restroom,0,0,0,0,37.757060280845856,-122.48690807104853,2201 Lawton,San Francisco,CA,94122,Sunset Rec Center,publicly_accessible,08:00:00,20:00:00,Daily,,rec,POINT (-122.486908071 37.757060281),4,Sunset/Parkside,2024/03/01 11:23:48 AM,2024/03/01 11:29:55 AM,39,10,7,35,105
Hayes Valley Clubhouse,1185946669847466623,restroom,0,0,0,0,37.775909456629726,-122.42765945399609,Hayes & Buchanan St,San Francisco,CA,94102,Hayes Valley Playground,publicly_accessible,08:00:00,20:00:00,Daily,,rec,POINT (-122.427659454 37.775909457),5,Hayes Valley,2024/03/01 11:23:48 AM,2024/03/01 11:29:55 AM,22,4,11,9,174
Louis Sutter Clubhouse,5639449430404933875,restroom,0,0,0,0,37.72239104823199,-122.41438778588373,Wayland & Yale St,San Francisco,CA,94134,Louis Sutter Playground,publicly_accessible,08:00:00,20:00:00,Daily,,rec,POINT (-122.414387786 37.722391048),9,McLaren Park,2024/03/01 11:23:48 AM,2024/03/01 11:29:55 AM,73,2,2,19,10
Cabrillo Playground - Drinking Fountain,8966914103949868492,drinking_water,1,0,0,0,37.77297404,-122.49900828,858 - 38th Avenue,San Francisco,CA,94121,Cabrillo Playground,publicly_accessible,08:00:00,20:00:00,Daily,,rec,POINT (-122.499008276 37.772974039),1,Outer Richmond,2024/03/01 11:23:48 AM,2024/03/01 11:29:55 AM,8,8,4,29,81
Father Alfred E. Boeddeker Park - Brick Pathway Drinking Fountain,373677980970770295,drinking_water,1,1,0,0,37.78433303,-122.41220835,295 Eddy Street,San Francisco,CA,94102,Father Alfred E. Boeddeker Park,publicly_accessible,08:00:00,20:00:00,Daily,,rec,POINT (-122.412208346 37.784333026),5,Tenderloin,2024/03/01 11:23:48 AM,2024/03/01 11:29:55 AM,20,5,10,36,162
Raymond Kimbell Fieldhouse,2021633674666430636,restroom,0,0,0,0,37.78231552898663,-122.43561639361594,Steiner & O'Farrell St,San Francisco,CA,94115,Raymond Kimball Playground,limited_access,08:00:00,20:00:00,Daily,,rec,POINT (-122.435616394 37.782315529),5,Western Addition,2024/03/01 11:23:48 AM,2024/03/01 11:29:55 AM,97,4,11,39,123
Coit Tower,1300996872573206948,restroom,0,0,0,0,37.8024444456651,-122.40586285495309,#1 Telegraph Hill Blvd,San Francisco,CA,94133,Telegraph Hill - Pioneer Park,publicly_accessible,08:00:00,20:00:00,Daily,,rec,POINT (-122.405862855 37.802444446),3,North Beach,2024/03/01 11:23:48 AM,2024/03/01 11:29:55 AM,18,6,3,23,227
Upper Noe Rec Center building,3158456019003072220,restroom,0,0,0,0,37.74244647015993,-122.4284338721812,Day & Sanchez Streets,San Francisco,CA,94131,Upper Noe Rec Center,publicly_accessible,08:00:00,20:00:00,Daily,,rec,POINT (-122.428433872 37.74244647),8,Noe Valley,2024/03/01 11:23:48 AM,2024/03/01 11:29:55 AM,84,9,5,22,100
West Portal Clubhouse,1152567663852889285,restroom,0,0,0,0,37.741683410296105,-122.465307950467,Ulloa & Lenox St,San Francisco,CA,94127,West Portal Playground,publicly_accessible,08:00:00,20:00:00,Daily,,rec,POINT (-122.46530795 37.74168341),7,West of Twin Peaks,2024/03/01 11:23:48 AM,2024/03/01 11:29:55 AM,46,10,8,41,223
Mission Creek Pavilion,1697454832649394634,restroom,0,0,0,0,37.77313632959885,-122.39368445429092,Channel St,San Francisco,CA,,Mission Creek Park,publicly_accessible,08:00:00,20:00:00,Daily,,rec,POINT (-122.393684454 37.77313633),6,Mission Bay,2024/03/01 11:23:48 AM,2024/03/01 11:29:55 AM,34,1,10,4,
Mission Dolores Park - Turf Drinking Fountain,6712698160424028370,drinking_water,1,0,0,0,37.75947164,-122.42710577,19th & Dolores Streets,San Francisco,CA,94114,Mission Dolores Park,publicly_accessible,08:00:00,20:00:00,Daily,,rec,POINT (-122.427105774 37.759471644),8,Castro/Upper Market,2024/03/01 11:23:48 AM,2024/03/01 11:29:55 AM,37,3,5,5,213
Golden Gate Park - Section 7 - Bowling Green Drinking Fountain,1258087348150721059,drinking_water,1,0,0,0,37.76917435,-122.45878342,Golden Gate Park,San Francisco,CA,94122,Golden Gate Park - Section 7,limited_access,08:00:00,20:00:00,Daily,,rec,POINT (-122.458783423 37.769174355),7,Golden Gate Park,2024/03/01 11:23:48 AM,2024/03/01 11:29:55 AM,9,7,11,12,228
States Street Restrooms,9073958045030391586,restroom,0,0,0,0,37.76376981292222,-122.43858249663064,States St,San Francisco,CA,94114,States Street Playground,publicly_accessible,08:00:00,20:00:00,Daily,,rec,POINT (-122.438582497 37.763769813),8,Castro/Upper Market,2024/03/01 11:23:48 AM,2024/03/01 11:29:55 AM,113,7,5,5,107
Willie Woo Woo Wong Playground - Multi-Use Paved Area Drinking Fountain,3381012651267704864,drinking_water,1,0,0,0,37.79362387,-122.40706237,Sacramento Street & Waverly,San Francisco,CA,94108,Willie Woo Woo Wong Playground,publicly_accessible,08:00:00,20:00:00,Daily,,rec,POINT (-122.407062369 37.793623871),3,Chinatown,2024/03/01 11:23:48 AM,2024/03/01 11:29:55 AM,104,6,3,6,92
Patricia's Green in Hayes Valley - Concrete Path Drinking Foutains,8289766285611584053,drinking_water,1,1,0,0,37.77594665,-122.42445427,Octavia Boulevard @ Hayes,San Francisco,CA,94102,Patricia's Green in Hayes Valley,publicly_accessible,08:00:00,20:00:00,Daily,,rec,POINT (-122.424454267 37.775946648),5,Hayes Valley,2024/03/01 11:23:48 AM,2024/03/01 11:29:55 AM,22,4,11,9,189
Bernal Heights Branch Library,5507692796941224450,drinking_water,1,0,0,0,37.73885128400008,-122.41610523099996,500 Cortland Ave,San Francisco,CA,94110,,limited_access,,,Daily,"opening_hours = [""Sunday:13:00-17:00"",""Monday:10:00-18:00"",""Tuesday:10:00-19:00"",""Wednesday:12:00-20:00"",""Thursday:10:00-18:00"",""Friday:13:00-18:00"",""Saturday:10:00-18:00"",""Total Weekly Hours:50""]",library,POINT (-122.416105231 37.738851284),9,Bernal Heights,2024/03/01 11:23:48 AM,2024/03/01 11:29:55 AM,83,9,2,2,80
Mission Pit Stop - 16th and Mission streets (JCDecaux),1226175465277442641,restroom,0,0,0,0,37.764946,-122.42002,16th and Mission streets (JCDecaux),San Francisco,CA,,,publicly_accessible,,,,,pit_stop,POINT (-122.42002 37.764946),9,Mission,2024/03/01 11:23:48 AM,2024/03/01 11:29:55 AM,53,3,2,20,
Mission Pit Stop - 344 14th St.,2466058572733021801,restroom,0,0,0,0,37.768257,-122.421,344 14th St.,San Francisco,CA,,,publicly_accessible,,,,,pit_stop,POINT (-122.421 37.768257),9,Mission,2024/03/01 11:23:48 AM,2024/03/01 11:29:55 AM,53,3,2,20,
Castro Pit Stop - Market and Castro streets (JCDecaux),3991774780780772696,restroom,0,0,0,0,37.76277,-122.43481,Market and Castro streets (JCDecaux),San Francisco,CA,,,publicly_accessible,,,,,pit_stop,POINT (-122.43481 37.76277),8,Castro/Upper Market,2024/03/01 11:23:48 AM,2024/03/01 11:29:55 AM,38,3,5,5,
Moscone Rec Center - Drinking Fountain/Cooler,3455732999251252810,drinking_water,1,1,0,0,37.80149195,-122.43324001,1800 Chestnut Street,San Francisco,CA,94123,Moscone Rec Center,publicly_accessible,08:00:00,20:00:00,Daily,,rec,POINT (-122.433240005 37.801491949),2,Marina,2024/03/01 11:23:48 AM,2024/03/01 11:29:55 AM,17,4,6,13,135
"Mission Pit Stop - SFGH, near SE corner of Building 25",731874903109434684,restroom,0,0,0,0,37.75526,-122.40519,"SFGH, near SE corner of Building 25",San Francisco,CA,,,publicly_accessible,,,,,pit_stop,POINT (-122.40519 37.75526),10,Mission,2024/03/01 11:23:48 AM,2024/03/01 11:29:55 AM,54,3,9,20,
Crocker Amazon Clubhouse,7495279004308334249,restroom,0,0,0,0,37.71521921026123,-122.4318254881259,Moscow & Italy St,San Francisco,CA,94134,Crocker Amazon Playground,publicly_accessible,08:00:00,20:00:00,Daily,,rec,POINT (-122.431825488 37.71521921),11,Excelsior,2024/03/01 11:23:48 AM,2024/03/01 11:29:55 AM,58,9,1,7,158
"Pier 45, Shed A",6920006118133311026,restroom,0,0,0,0,37.7982642,-122.3963875,49 The Embarcadero,San Francisco,CA,94107,,limited_access,,,Daily,Inside Shed A,port,POINT (-122.3963875 37.7982642),3,Financial District/South Beach,2024/03/01 11:23:48 AM,2024/03/01 11:29:55 AM,77,6,3,8,
Douglass Playground - Perennial Bed Drinking Fountains,3378034276036472213,drinking_water,1,0,0,0,37.74791785,-122.43840181,26th & Douglass Street,San Francisco,CA,94131,Douglass Playground,limited_access,08:00:00,20:00:00,Daily,,rec,POINT (-122.438401815 37.747917851),8,Noe Valley,2024/03/01 11:23:48 AM,2024/03/01 11:29:55 AM,57,3,5,22,206
Joseph L. Alioto Performing Arts Piazza - Hardscaped Area Drinking Fountain,5805677958464198751,drinking_water,1,0,0,0,37.77990302,-122.41730591,Grove & Larkin Streets,San Francisco,CA,94102,Joseph L. Alioto Performing Arts Piazza,limited_access,08:00:00,20:00:00,Daily,,rec,POINT (-122.417305906 37.779903018),5,Tenderloin,2024/03/01 11:23:48 AM,2024/03/01 11:29:55 AM,21,4,10,36,57
Noe Valley Branch Library,5439257887640776803,drinking_water,1,0,0,0,37.75022804200006,-122.43509024199994,451 Jersey St,San Francisco,CA,94114,,limited_access,,,Daily,"opening_hours = [""Sunday:13:00-17:00"",""Monday:12:00-18:00"",""Tuesday:10:00-20:00"",""Wednesday:12:00-20:00"",""Thursday:10:00-18:00"",""Friday:13:00-18:00"",""Saturday:10:00-18:00"",""Total Weekly Hours:49""]",library,POINT (-122.435090242 37.750228042),8,Noe Valley,2024/03/01 11:23:48 AM,2024/03/01 11:29:55 AM,84,3,5,22,
Sgt. John Macaulay Park - Children's Play Area Drinking Fountain,3115582599751189327,drinking_water,1,0,0,0,37.78538704,-122.4182481,Larkin & O Farrell,San Francisco,CA,94109,Sgt. John Macaulay Park,limited_access,08:00:00,20:00:00,Daily,,rec,POINT (-122.418248099 37.785387039),5,Tenderloin,2024/03/01 11:23:48 AM,2024/03/01 11:29:55 AM,20,5,10,36,113
Betty Ann Ong Chinese Recreation Center,9071085066755205918,restroom,0,0,0,0,37.79427381469167,-122.41169060265194,1199 Mason St,San Francisco,CA,94108,Betty Ann Ong Chinese Rec Center,publicly_accessible,08:00:00,20:00:00,Daily,,rec,POINT (-122.411690603 37.794273815),3,Nob Hill,2024/03/01 11:23:48 AM,2024/03/01 11:29:55 AM,16,6,3,21,155
Parkside Square - Children's Play Area Drinking Fountain,3104945405220519261,drinking_water,1,0,0,0,37.73787938,-122.48463807,28th Ave & Vicente,San Francisco,CA,94116,Parkside Square,limited_access,08:00:00,20:00:00,Daily,,rec,POINT (-122.484638069 37.737879379),4,Sunset/Parkside,2024/03/01 11:23:48 AM,2024/03/01 11:29:55 AM,40,10,7,35,217
Garfield Square Clubhouse,2120452437850770345,restroom,0,0,0,0,37.74990573794819,-122.41234394420202,26th & Harrison St,San Francisco,CA,94110,Garfield Square,publicly_accessible,08:00:00,20:00:00,Daily,,rec,POINT (-122.412343944 37.749905738),9,Mission,2024/03/01 11:23:48 AM,2024/03/01 11:29:55 AM,53,3,2,20,165
Port of San Francisco,2480114164880190808,drinking_water,1,1,0,0,37.79689,-122.39505,Pier 1 on the Embarcadero,San Francisco,CA,94111,,limited_access,08:00:00,17:30:00,Daily,Inside Pier 1,port,POINT (-122.39505 37.79689),3,Financial District/South Beach,2024/03/01 11:23:48 AM,2024/03/01 11:29:55 AM,77,6,3,8,
Golden Gate Park Beach Chalet,5149018087849643472,restroom,0,0,0,0,37.769590008162446,-122.5101143576575,1000 Great Hwy (at Ocean Beach),San Francisco,CA,94122,Golden Gate Park - Section 6,limited_access,08:00:00,20:00:00,Daily,,rec,POINT (-122.510114358 37.769590008),4,Golden Gate Park,2024/03/01 11:23:48 AM,2024/03/01 11:29:55 AM,9,8,4,12,234
Adam Rogers Restrooms,5250842426046357015,restroom,0,0,0,0,37.730885207751186,-122.38373284182542,1215 Quesada Ave,San Francisco,CA,94124,Adam Rodgers Park,publicly_accessible,08:00:00,20:00:00,Daily,,rec,POINT (-122.383732842 37.730885208),10,Bayview Hunters Point,2024/03/01 11:23:48 AM,2024/03/01 11:29:55 AM,86,2,9,1,146
Randall Museum,4121861414795695393,restroom,0,0,0,0,37.764540292509956,-122.43823383003104,Roosevelt & Museum Way,San Francisco,CA,94114,Corona Heights Park,publicly_accessible,08:00:00,20:00:00,Daily,,rec,POINT (-122.43823383 37.764540293),8,Castro/Upper Market,2024/03/01 11:23:48 AM,2024/03/01 11:29:55 AM,113,7,5,5,202
Mission Pit Stop - Julian Avenue & 15th Street,3416910908677214350,restroom,0,0,0,0,37.766598,-122.42108,Julian Avenue & 15th Street,San Francisco,CA,,,publicly_accessible,,,,,pit_stop,POINT (-122.42108 37.766598),9,Mission,2024/03/01 11:23:48 AM,2024/03/01 11:29:55 AM,53,3,2,20,
Bernal Heights Rec Center,3195322800649596575,restroom,0,0,0,0,37.73831276120168,-122.41599756144736,500 Moultrie St,San Francisco,CA,94110,Bernal Heights Rec Center,publicly_accessible,08:00:00,20:00:00,Daily,,rec,POINT (-122.415997561 37.738312761),9,Bernal Heights,2024/03/01 11:23:48 AM,2024/03/01 11:29:55 AM,83,9,2,2,79
DuPont Courts Restrooms,9157226914370568505,restroom,0,0,0,0,37.782884098004146,-122.49085411247636,30th Ave & Clement,San Francisco,CA,94121,DuPont Tennis Courts,publicly_accessible,08:00:00,20:00:00,Daily,,rec,POINT (-122.490854112 37.782884098),1,Outer Richmond,2024/03/01 11:23:48 AM,2024/03/01 11:29:55 AM,8,8,4,29,207
Youngblood Coleman Landscaped Areas,1900201754316035552,restroom,0,0,0,0,37.739210454017055,-122.38573118327993,1398 Hudson Street,San Francisco,CA,94124,Youngblood-Coleman Playground,publicly_accessible,08:00:00,20:00:00,Daily,,rec,POINT (-122.385731183 37.739210454),10,Bayview Hunters Point,2024/03/01 11:23:48 AM,2024/03/01 11:29:55 AM,86,2,9,1,224
Golden Gate Park - Section 4 - Rose Garden Drinking Fountain,6254315247734318645,drinking_water,1,0,0,0,37.77201682,-122.47114772,Stanyan & Great Hwy,San Francisco,CA,94118,Golden Gate Park - Section 4,publicly_accessible,08:00:00,20:00:00,Daily,,rec,POINT (-122.471147723 37.772016818),1,Golden Gate Park,2024/03/01 11:23:48 AM,2024/03/01 11:29:55 AM,9,8,4,12,232
Visitacion Valley Branch Library,5445528273876891131,drinking_water,1,0,0,0,37.71245320600008,-122.40788422599996,201 Leland Ave,San Francisco,CA,94134,,limited_access,,,Daily,"opening_hours = [""Sunday:13:00-17:00"",""Monday:10:00-18:00"",""Tuesday:10:00-20:00"",""Wednesday:10:00-20:00"",""Thursday:10:00-20:00"",""Friday:13:00-18:00"",""Saturday:10:00-18:00"",""Total Weekly Hours:55""]",library,POINT (-122.407884226 37.712453206),10,Visitacion Valley,2024/03/01 11:23:48 AM,2024/03/01 11:29:55 AM,75,9,9,40,
Hayes Valley Playground - Drinking Fountain,2261748545274406525,drinking_water,1,0,0,0,37.77606955,-122.42741294,Hayes & Buchanan St,San Francisco,CA,94102,Hayes Valley Playground,publicly_accessible,08:00:00,20:00:00,Daily,,rec,POINT (-122.427412943 37.776069548),5,Hayes Valley,2024/03/01 11:23:48 AM,2024/03/01 11:29:55 AM,22,4,11,9,174
Golden Gate Park Panhandle Restroom Bldg,7206395870757051780,restroom,0,0,0,0,37.77236922544882,-122.44763869301568,Stanyan & Great Hwy,San Francisco,CA,94117,Golden Gate Park - Section 1,publicly_accessible,08:00:00,20:00:00,Daily,,rec,POINT (-122.447638693 37.772369225),5,Golden Gate Park,2024/03/01 11:23:48 AM,2024/03/01 11:29:55 AM,24,7,11,12,229
St. Mary's Rec Center - Dog Play Area Hardscape Drinking Fountain,7777945280870742806,drinking_water,1,0,0,0,37.7329474,-122.42105235,Murray & Justin Drive,San Francisco,CA,94110,St. Mary's Rec Center,publicly_accessible,08:00:00,20:00:00,Daily,,rec,POINT (-122.421052355 37.732947404),9,Bernal Heights,2024/03/01 11:23:48 AM,2024/03/01 11:29:55 AM,93,9,2,2,109
Balboa Park Community Pool,2219492298401891873,restroom,0,0,0,0,37.72640027139981,-122.44323590223314,San Jose Ave & Havelock,San Francisco,CA,94112,Balboa Park,publicly_accessible,08:00:00,20:00:00,Daily,,rec,POINT (-122.443235902 37.726400271),11,Outer Mission,2024/03/01 11:23:48 AM,2024/03/01 11:29:55 AM,94,9,1,28,76
Presidio Branch Library,3848458598906265461,drinking_water,1,0,0,0,37.788910970000074,-122.44485234499996,3150 Sacramento St,San Francisco,CA,94115,,limited_access,,,Daily,"opening_hours = [""Sunday:13:00-17:00"",""Monday:13:00-18:00"",""Tuesday:10:00-20:00"",""Wednesday:11:00-20:00"",""Thursday:10:00-18:00"",""Friday:13:00-18:00"",""Saturday:10:00-18:00"",""Total Weekly Hours:49""]",library,POINT (-122.444852345 37.78891097),2,Pacific Heights,2024/03/01 11:23:48 AM,2024/03/01 11:29:55 AM,102,8,6,30,
McLaren Bike Restroom,1992537512030673501,restroom,0,0,0,0,37.714134642807224,-122.42329113242955,,San Francisco,CA,94134,John McLaren Park,publicly_accessible,08:00:00,20:00:00,Daily,,rec,POINT (-122.423291132 37.714134643),10,McLaren Park,2024/03/01 11:23:48 AM,2024/03/01 11:29:55 AM,73,9,9,19,7
Golden Gate Park - Section 6 - North Lake Drinking Fountain,8594153655754958979,drinking_water,1,1,0,0,37.77082793,-122.50299988,Golden Gate Park,San Francisco,CA,94122,Golden Gate Park - Section 6,publicly_accessible,08:00:00,20:00:00,Daily,,rec,POINT (-122.502999879 37.770827933),1,Golden Gate Park,2024/03/01 11:23:48 AM,2024/03/01 11:29:55 AM,9,8,4,12,234
Golden Gate Park - Section 6 - Drinking Fountain/Cooler,1532798181122981291,drinking_water,1,1,0,0,37.7679981,-122.5082134,Great Hwy (at Ocean Beach),San Francisco,CA,94122,Golden Gate Park - Section 6,publicly_accessible,08:00:00,20:00:00,Daily,,rec,POINT (-122.508213396 37.767998096),4,Golden Gate Park,2024/03/01 11:23:48 AM,2024/03/01 11:29:55 AM,9,8,4,12,234
Balboa Park - Asphalt Pathway Drinking Fountain,9215921655294908970,drinking_water,1,1,0,0,37.72582314,-122.443341,Ocean & San Jose Avenues,San Francisco,CA,94112,Balboa Park,publicly_accessible,08:00:00,20:00:00,Daily,,rec,POINT (-122.443340996 37.725823137),11,Outer Mission,2024/03/01 11:23:48 AM,2024/03/01 11:29:55 AM,94,9,1,28,76
Louis Sutter Playground - Drinking Fountain,2358256450809811162,drinking_water,1,1,0,0,37.72220333,-122.41308386,Wayland & University,San Francisco,CA,94134,Louis Sutter Playground,publicly_accessible,08:00:00,20:00:00,Daily,,rec,POINT (-122.413083859 37.722203325),9,McLaren Park,2024/03/01 11:23:48 AM,2024/03/01 11:29:55 AM,73,2,2,19,10
Bayview Gateway Park,6601007062272325826,drinking_water,1,1,0,0,37.74671,-122.38634,3rd & Cargo Way,San Francisco,CA,94124,,publicly_accessible,,,Daily,Near benches,port,POINT (-122.38634 37.74671),10,Bayview Hunters Point,2024/03/01 11:23:48 AM,2024/03/01 11:29:55 AM,56,2,9,1,
Lower Great Highway Taraval Restrooms,271232090700619754,restroom,0,0,0,0,37.741426624601985,-122.5070797958313,Great Hwy & Taraval,San Francisco,CA,94116,Lower Great Highway,publicly_accessible,08:00:00,20:00:00,Daily,,rec,POINT (-122.507079796 37.741426625),4,Sunset/Parkside,2024/03/01 11:23:48 AM,2024/03/01 11:29:55 AM,39,10,7,35,20
Tenderloin Pit Stop - 701 Ellis St. (at Larkin),6956680928895690187,restroom,0,0,0,0,37.78425,-122.41773,701 Ellis St. (at Larkin),San Francisco,CA,,,publicly_accessible,,,,,pit_stop,POINT (-122.41773 37.78425),5,Tenderloin,2024/03/01 11:23:48 AM,2024/03/01 11:29:55 AM,20,5,10,36,
Potrero del Sol maintenance shed,7369807581716614644,restroom,0,0,0,0,37.75010238271907,-122.4053570148707,Potrero & Army,San Francisco,CA,94110,Potrero del Sol,limited_access,08:00:00,20:00:00,Daily,,rec,POINT (-122.405357015 37.750102383),9,Mission,2024/03/01 11:23:48 AM,2024/03/01 11:29:55 AM,54,3,9,20,220
Margaret S.Hayward Playground - Hardscaped Area Drinking Fountain,2179294818867785707,drinking_water,1,0,0,0,37.78126338,-122.42519371,1016 Laguna Street,San Francisco,CA,94102,Margaret S.Hayward Playground,publicly_accessible,08:00:00,20:00:00,Daily,,rec,POINT (-122.425193707 37.781263381),5,Western Addition,2024/03/01 11:23:48 AM,2024/03/01 11:29:55 AM,100,4,11,39,140
Ferry Building,7030273931982775170,drinking_water,1,1,0,0,37.79542,-122.39363,1 Ferry Building,San Francisco,CA,94111,,limited_access,07:00:00,22:00:00,Daily,2 by the public bathrooms,port,POINT (-122.39363 37.79542),3,Financial District/South Beach,2024/03/01 11:23:48 AM,2024/03/01 11:29:55 AM,108,6,3,8,
Duboce Park - Drinking Fountain 3,2290785160606033347,drinking_water,1,0,0,0,37.76940612,-122.43356966,Duboce & Scott St,San Francisco,CA,94117,Duboce Park,limited_access,08:00:00,20:00:00,Daily,,rec,POINT (-122.433569662 37.769406116),8,Haight Ashbury,2024/03/01 11:23:48 AM,2024/03/01 11:29:55 AM,28,7,5,3,159
Parkside Square - Children's Play Area Drinking Fountain,4520404747925359459,drinking_water,1,0,0,0,37.73778064,-122.48449476,28th Ave & Vicente,San Francisco,CA,94116,Parkside Square,limited_access,08:00:00,20:00:00,Daily,,rec,POINT (-122.484494758 37.737780643),4,Sunset/Parkside,2024/03/01 11:23:48 AM,2024/03/01 11:29:55 AM,40,10,7,35,217
Golden Gate Valley Branch Library,6026358941900616187,drinking_water,1,0,0,0,37.796788830000025,-122.429023471,1801 Green St,San Francisco,CA,94123,,limited_access,,,Daily,"opening_hours = [""Sunday:13:00-17:00"",""Monday:10:00-18:00"",""Tuesday:10:00-18:00"",""Wednesday:12:00-20:00"",""Thursday:12:00-20:00"",""Friday:13:00-18:00"",""Saturday:10:00-18:00"",""Total Weekly Hours:49""]",library,POINT (-122.429023471 37.79678883),2,Marina,2024/03/01 11:23:48 AM,2024/03/01 11:29:55 AM,102,4,6,13,
Golden Gate Heights Park - Asphalt Pathway Dog Drinking Fountain,7577232624941035203,drinking_water,1,0,0,1,37.75014593,-122.46853687,12th Ave (off Pacheco) & Rockridge,San Francisco,CA,94116,Golden Gate Heights Park,publicly_accessible,08:00:00,20:00:00,Daily,,rec,POINT (-122.468536866 37.750145934),7,Inner Sunset,2024/03/01 11:23:48 AM,2024/03/01 11:29:55 AM,44,10,8,14,48
Lafayette Park Restrooms,4944039720054315216,restroom,0,0,0,0,37.7917241257792,-122.428152927323,Washington & Laguna St,San Francisco,CA,94109,Lafayette Park,publicly_accessible,08:00:00,20:00:00,Daily,,rec,POINT (-122.428152927 37.791724126),2,Pacific Heights,2024/03/01 11:23:48 AM,2024/03/01 11:29:55 AM,102,4,6,30,212
Lincoln Park Restrooms,1342337739062596248,restroom,0,0,0,0,37.78422005078599,-122.50182639942412,34th Avenue & Clement,San Francisco,CA,94121,Lincoln Park,publicly_accessible,08:00:00,20:00:00,Daily,,rec,POINT (-122.501826399 37.784220051),1,Lincoln Park,2024/03/01 11:23:48 AM,2024/03/01 11:29:55 AM,7,8,4,17,52
Potrero Branch Library,4782384906586179379,drinking_water,1,0,0,0,37.760135940000055,-122.39766410099998,1616 20th St,San Francisco,CA,94107,,limited_access,,,Daily,"opening_hours = [""Sunday:13:00-17:00"",""Monday:13:00-18:00"",""Tuesday:10:00-20:00"",""Wednesday:13:00-20:00"",""Thursday:10:00-20:00"",""Friday:13:00-18:00"",""Saturday:10:00-18:00"",""Total Weekly Hours:49""]",library,POINT (-122.397664101 37.76013594),10,Potrero Hill,2024/03/01 11:23:48 AM,2024/03/01 11:29:55 AM,54,2,9,26,
Coffman Community Pool,8800887384107998647,restroom,0,0,0,0,37.71335158926523,-122.41572366647277,1701 Visitacion Ave,San Francisco,CA,94134,Herz Playground,publicly_accessible,08:00:00,20:00:00,Daily,,rec,POINT (-122.415723666 37.713351589),10,McLaren Park,2024/03/01 11:23:48 AM,2024/03/01 11:29:55 AM,73,9,9,19,15
Stern: Trocadero Clubhouse,8133832864124121718,restroom,0,0,0,0,37.736172345084874,-122.47791731518235,19th Ave & Sloat Blvd,San Francisco,CA,94132,Sigmund Stern Recreation Grove,publicly_accessible,08:00:00,20:00:00,Daily,,rec,POINT (-122.477917315 37.736172345),4,Sunset/Parkside,2024/03/01 11:23:48 AM,2024/03/01 11:29:55 AM,40,10,7,35,112
Helen Wills Playground - Concrete Hardscaped Area Drinking Fountain,2231341777155569139,drinking_water,1,0,0,0,37.79571825,-122.42048044,Broadway & Larkin,San Francisco,CA,94109,Helen Wills Playground,publicly_accessible,08:00:00,20:00:00,Daily,,rec,POINT (-122.420480439 37.795718247),3,Russian Hill,2024/03/01 11:23:48 AM,2024/03/01 11:29:55 AM,105,4,3,32,175
South Sunset Clubhouse,7164518970109990344,restroom,0,0,0,0,37.73806926299069,-122.49828821737344,40th Ave & Vicente St,San Francisco,CA,94116,South Sunset Playground,publicly_accessible,08:00:00,20:00:00,Daily,,rec,POINT (-122.498288217 37.738069263),4,Sunset/Parkside,2024/03/01 11:23:48 AM,2024/03/01 11:29:55 AM,40,10,7,35,110
Glen Park Branch Library,1697779997800312692,drinking_water,1,0,0,0,37.733980204000034,-122.43383315499995,2825 Diamond St,San Francisco,CA,94131,,limited_access,,,Daily,"opening_hours = [""Sunday:13:00-17:00"",""Monday:10:00-18:00"",""Tuesday:10:00-18:00"",""Wednesday:12:00-20:00"",""Thursday:10:00-19:00"",""Friday:13:00-18:00"",""Saturday:10:00-18:00"",""Total Weekly Hours:50""]",library,POINT (-122.433833155 37.733980204),8,Glen Park,2024/03/01 11:23:48 AM,2024/03/01 11:29:55 AM,96,9,5,10,
Lafayette Park - Dog Play Area Drinking Fountain 1,1645945423523718393,drinking_water,1,0,0,0,37.79101422,-122.4273439,Gough & Washington Streets,San Francisco,CA,94109,Lafayette Park,publicly_accessible,08:00:00,20:00:00,Daily,,rec,POINT (-122.427343901 37.791014216),2,Pacific Heights,2024/03/01 11:23:48 AM,2024/03/01 11:29:55 AM,102,4,6,30,212
Mechanics Plaza at Battery/Market,4010859251661602629,drinking_water,0,1,0,0,37.79129,-122.399052,456 Market St,San Francisco,CA,94104,,publicly_accessible,,,Daily,,puc,POINT (-122.399052 37.79129),3,Financial District/South Beach,2024/03/01 11:23:48 AM,2024/03/01 11:29:55 AM,108,6,3,8,
Parkside Branch Library,580239198389475256,drinking_water,1,0,0,0,37.74316235800006,-122.47934506399997,1200 Taraval St,San Francisco,CA,94116,,limited_access,,,Daily,"opening_hours = [""Sunday:13:00-17:00"",""Monday:13:00-18:00"",""Tuesday:10:00-20:00"",""Wednesday:11:00-20:00"",""Thursday:10:00-18:00"",""Friday:13:00-18:00"",""Saturday:10:00-18:00"",""Total Weekly Hours:49""]",library,POINT (-122.479345064 37.743162358),4,Sunset/Parkside,2024/03/01 11:23:48 AM,2024/03/01 11:29:55 AM,40,10,7,35,
Golden Gate Park Polo Field North Restrooms,4046357852653494848,restroom,0,0,0,0,37.769420725991665,-122.4930999167312,,San Francisco,CA,94122,Golden Gate Park - Section 5,publicly_accessible,08:00:00,20:00:00,Daily,,rec,POINT (-122.493099917 37.769420726),4,Golden Gate Park,2024/03/01 11:23:48 AM,2024/03/01 11:29:55 AM,9,8,4,12,233
Alta: Restrooms,6158554384647289115,restroom,0,0,0,0,37.79124662419001,-122.43816772738802,Jackson & Steiner,San Francisco,CA,94115,Alta Plaza Park,publicly_accessible,08:00:00,20:00:00,Daily,,rec,POINT (-122.438167727 37.791246624),2,Pacific Heights,2024/03/01 11:23:48 AM,2024/03/01 11:29:55 AM,102,4,6,30,149
Holly Park Bathrooms,275861013704290853,restroom,0,0,0,0,37.737122501096984,-122.42058678294492,Holly Park Cir,San Francisco,CA,94110,Holly Park,publicly_accessible,08:00:00,20:00:00,Daily,,rec,POINT (-122.420586783 37.737122501),9,Bernal Heights,2024/03/01 11:23:48 AM,2024/03/01 11:29:55 AM,61,9,2,2,47
Mission Pit Stop - 3100 26th Street,8331964738456881686,restroom,0,0,0,0,37.749447,-122.41162,3100 26th Street,San Francisco,CA,,,publicly_accessible,,,,,pit_stop,POINT (-122.41162 37.749447),9,Mission,2024/03/01 11:23:48 AM,2024/03/01 11:29:55 AM,53,3,2,20,
Mission PG Clubhouse,7754601808523934818,restroom,0,0,0,0,37.759404745040534,-122.42242458292566,19th & Linda,San Francisco,CA,94110,Mission Playground,publicly_accessible,08:00:00,20:00:00,Daily,,rec,POINT (-122.422424583 37.759404745),9,Mission,2024/03/01 11:23:48 AM,2024/03/01 11:29:55 AM,37,3,5,20,214
"Pier 7, J C Decaux",8712865930210385388,restroom,0,0,0,0,37.7976043,-122.3966113,475 The Embarcadero,San Francisco,CA,94105,,publicly_accessible,,,Daily,J C Decaux,port,POINT (-122.3966113 37.7976043),3,Financial District/South Beach,2024/03/01 11:23:48 AM,2024/03/01 11:29:55 AM,77,6,3,8,
Mission Rec Center,7286495612961491893,restroom,0,0,0,0,37.758220490081314,-122.41279767791099,2450 Harrison St,San Francisco,CA,94110,Mission Rec Center,publicly_accessible,08:00:00,20:00:00,Daily,,rec,POINT (-122.412797678 37.75822049),9,Mission,2024/03/01 11:23:48 AM,2024/03/01 11:29:55 AM,53,3,2,20,215
Mission Dolores South Restrooms,6914552669529225689,restroom,0,0,0,0,37.758563329153155,-122.426419014319,,San Francisco,CA,,Mission Dolores Park,publicly_accessible,08:00:00,20:00:00,Daily,,rec,POINT (-122.426419014 37.758563329),8,Castro/Upper Market,2024/03/01 11:23:48 AM,2024/03/01 11:29:55 AM,37,3,5,5,213
MS Hayward Clubhouse,6767209351983151189,restroom,0,0,0,0,37.78052805955708,-122.42582423070334,1016 Laguna,San Francisco,CA,94102,Margaret S.Hayward Playground,publicly_accessible,08:00:00,20:00:00,Daily,,rec,POINT (-122.425824231 37.78052806),5,Western Addition,2024/03/01 11:23:48 AM,2024/03/01 11:29:55 AM,100,4,11,39,140
Mountain Lake Park - Asphalt Pathway Drinking Fountain,2747603554687007857,drinking_water,1,0,0,0,37.78697165,-122.46793154,1 Eleventh Avenue,San Francisco,CA,94118,Mountain Lake Park,publicly_accessible,08:00:00,20:00:00,Daily,,rec,POINT (-122.467931542 37.786971652),1,Inner Richmond,2024/03/01 11:23:48 AM,2024/03/01 11:29:55 AM,4,,6,11,134
SoMa Pit Stop - Victoria Manalo Draves Park (Rec Park),3769861877417491906,restroom,0,0,0,0,37.77676,-122.40602,Victoria Manalo Draves Park (Rec Park),San Francisco,CA,,Victoria Manalo Draves Park,limited_access,,,,,pit_stop,POINT (-122.40602 37.77676),6,South of Market,2024/03/01 11:23:48 AM,2024/03/01 11:29:55 AM,32,1,10,34,98
South Beach Harbor,5535662967239792186,drinking_water,1,1,0,1,37.7803467,-122.3877,Pier 40A The Embarcadero,San Francisco,CA,94107,,publicly_accessible,,,Daily,Outside of playground,port,POINT (-122.3877 37.7803467),6,Mission Bay,2024/03/01 11:23:48 AM,2024/03/01 11:29:55 AM,31,1,10,4,
Crocker Amazon Playground - Bottle Filling Station,8043773709342955238,drinking_water,1,1,0,0,37.71379099,-122.42993906,Moscow & Geneva Streets,San Francisco,CA,94134,Crocker Amazon Playground,publicly_accessible,08:00:00,20:00:00,Daily,,rec,POINT (-122.42993906 37.713790993),11,Excelsior,2024/03/01 11:23:48 AM,2024/03/01 11:29:55 AM,58,9,1,7,158
Joseph L. Alioto Performing Arts Piazza - DF Paths Drinking Fountain,4026911834320374293,drinking_water,1,0,0,0,37.77916554,-122.41722142,Grove & Larkin Streets,San Francisco,CA,94102,Joseph L. Alioto Performing Arts Piazza,limited_access,08:00:00,20:00:00,Daily,,rec,POINT (-122.417221416 37.779165536),5,Tenderloin,2024/03/01 11:23:48 AM,2024/03/01 11:29:55 AM,21,4,10,36,57
Tenderloin Pit Stop - Turk and Hyde streets,4596080096965280480,restroom,0,0,0,0,37.782536,-122.41574,Turk and Hyde streets,San Francisco,CA,,,publicly_accessible,,,,,pit_stop,POINT (-122.41574 37.782536),5,Tenderloin,2024/03/01 11:23:48 AM,2024/03/01 11:29:55 AM,20,5,10,36,
Golden Gate Park - Section 6 - Bottle Filling Station,1954437290140338389,drinking_water,1,1,0,0,37.76680414,-122.50818661,Golden Gate Park,San Francisco,CA,94122,Golden Gate Park - Section 6,publicly_accessible,08:00:00,20:00:00,Daily,,rec,POINT (-122.508186612 37.766804144),4,Golden Gate Park,2024/03/01 11:23:48 AM,2024/03/01 11:29:55 AM,9,8,4,12,234
Merced Heights Playground - Turf Drinking Fountain,8077419409885926917,drinking_water,1,0,0,0,37.71748144,-122.47038419,Byxbee & Shields Streets,San Francisco,CA,94132,Merced Heights Playground,publicly_accessible,08:00:00,20:00:00,Daily,,rec,POINT (-122.470384188 37.717481445),11,Oceanview/Merced/Ingleside,2024/03/01 11:23:48 AM,2024/03/01 11:29:55 AM,65,10,1,24,138
Tenderloin Pit Stop - Eddy St. and Jones St.,1822039486289552148,restroom,0,0,0,0,37.784122,-122.41227,Eddy St. and Jones St.,San Francisco,CA,,Father Alfred E. Boeddeker Park,publicly_accessible,,,,,pit_stop,POINT (-122.41227 37.784122),5,Tenderloin,2024/03/01 11:23:48 AM,2024/03/01 11:29:55 AM,20,5,10,36,162
Rossi Annex Bathrooms,6562678434491126801,restroom,0,0,0,0,37.77798753036119,-122.45767116556061,2 Willard North Street,San Francisco,CA,94118,Angelo J. Rossi Playground,publicly_accessible,08:00:00,20:00:00,Daily,,rec,POINT (-122.457671166 37.77798753),1,Lone Mountain/USF,2024/03/01 11:23:48 AM,2024/03/01 11:29:55 AM,12,8,4,18,204
Noe Valley Courts - Perennial Bed Dog Drinking Fountain,4212533191010193057,drinking_water,1,0,0,1,37.75145346,-122.43894561,24th Street & Douglass,San Francisco,CA,94114,Noe Valley Courts,publicly_accessible,08:00:00,20:00:00,Daily,,rec,POINT (-122.438945611 37.751453464),8,Noe Valley,2024/03/01 11:23:48 AM,2024/03/01 11:29:55 AM,51,3,5,22,132
Palega Playground - Unisex Restroom Hi-low Drinking Fountain,3637715057731421584,drinking_water,1,0,0,0,37.72890703,-122.40968717,500 Felton,San Francisco,CA,94134,Palega Playground,limited_access,08:00:00,20:00:00,Daily,,rec,POINT (-122.409687171 37.728907033),9,Portola,2024/03/01 11:23:48 AM,2024/03/01 11:29:55 AM,91,2,2,25,130
Jackson Clubhouse,5798803553978306037,restroom,0,0,0,0,37.76388493548069,-122.39892775738193,17th & Arkansas St,San Francisco,CA,94107,Jackson Playground,publicly_accessible,08:00:00,20:00:00,Daily,,rec,POINT (-122.398927757 37.763884935),10,Potrero Hill,2024/03/01 11:23:48 AM,2024/03/01 11:29:55 AM,54,1,9,26,179
South Sunset Playground - Asphalt Pathway Drinking Fountain,6966005873581000536,drinking_water,1,1,0,0,37.73800239,-122.4983337,40th Avenue & Vicente,San Francisco,CA,94116,South Sunset Playground,publicly_accessible,08:00:00,20:00:00,Daily,,rec,POINT (-122.498333704 37.738002385),4,Sunset/Parkside,2024/03/01 11:23:48 AM,2024/03/01 11:29:55 AM,40,10,7,35,110
Crocker Amazon Playground - Drinking Fountain/Cooler,2289321129029835654,drinking_water,1,0,0,0,37.71440073,-122.42886246,Moscow & Geneva Streets,San Francisco,CA,94134,Crocker Amazon Playground,publicly_accessible,08:00:00,20:00:00,Daily,Crocker Amazon Playground,rec,POINT (-122.428862463 37.714400733),11,Excelsior,2024/03/01 11:23:48 AM,2024/03/01 11:29:55 AM,58,9,1,7,158
Mountain Lake Park - Asphalt Pathway Drinking Fountain,9010248336996548463,drinking_water,1,0,0,0,37.78685501,-122.47042907,1 Eleventh Avenue,San Francisco,CA,94118,Mountain Lake Park,publicly_accessible,08:00:00,20:00:00,Daily,,rec,POINT (-122.470429067 37.786855006),1,Inner Richmond,2024/03/01 11:23:48 AM,2024/03/01 11:29:55 AM,4,,6,11,134
Washington Square Bathrooms,9223139223415104835,restroom,0,0,0,0,37.801064242849186,-122.4106342849569,Filbert & Stockton & Columbus,San Francisco,CA,94133,Washington Square,publicly_accessible,08:00:00,20:00:00,Daily,,rec,POINT (-122.410634285 37.801064243),3,North Beach,2024/03/01 11:23:48 AM,2024/03/01 11:29:55 AM,106,6,3,23,94
Golden Gate Park - Section 1 - Park aid station - drinking fountain,1406029671417909664,drinking_water,1,0,0,0,37.76699483,-122.45332847,811 Stanyan St,San Francisco,CA,94122,Golden Gate Park - Section 1,limited_access,08:00:00,20:00:00,Daily,,rec,POINT (-122.453328468 37.766994833),5,Golden Gate Park,2024/03/01 11:23:48 AM,2024/03/01 11:29:55 AM,9,7,11,12,229
